exist_flag_gt,exist_flag_response,restaurant,restaurant_before_map,address_llm_judge,address_llm_judge_eval_msg,address_query,address_response,maincuisinestyle_llm_judge,maincuisinestyle_llm_judge_eval_msg,maincuisinestyle_query,maincuisinestyle_response,restaurant_exact_match,restaurant_exact_match_eval_msg
,,l'ambroisie,L'Ambroisie,1.0,"Let's analyze each pair carefully against the provided criterion:

Criterion summary:  
- Semantics need to be approximately the same, or point to the same entity.  
- No need for strict word-for-word matching.

---

**idx_0**  
- Response: '9placedesvosges,paris,75004'  
- Target: '9placedesvosges,75004paris'  

Analysis:  
- Both contain the key elements: ""9placedesvosges"", ""paris"", ""75004"" (a postal code).  
- The order differs slightly, but criteria allow approximate semantics and pointing to the same entity.  
- Despite the lack of spaces, both strings indicate the same address.  

Verdict: Score = 1

---

**idx_1**  
- Response: '31avenuegeorgev,75008paris'  
- Target: '31av.georgev,75008paris'  

Analysis:  
- Both include the key components: ""31"", ""avenue/georgev"" (noting ""av."" is abbreviation but semantics match), ""75008"", and ""paris"".  
- The response uses ""avenuegeorgev"" vs. ""av.georgev"" in target. This is an equivalent semantic representation.  
- All elements are the same with no major difference in meaning or entity referenced.  

Verdict: Score = 1

---

### Final scoring results:

```json
{
    ""idx_0"": 1,
    ""idx_1"": 1
}
```
","9placedesvosges,75004paris","9placedesvosges,paris,75004",1.0,"Let's analyze each idx item according to the criterion:

Criterion summary:  
- The response and the standard answer should have approximately the same semantics or point to the same entity.  
- No need for word-for-word correspondence, and one-to-one matching is unnecessary.  
- It is sufficient if the content is relevant.

---

**idx_0**:  
- Target: ""timelessfrenchhautecuisine""  
- Response: ""classicfrenchcuisine""  

Analysis:  
- ""timelessfrenchhautecuisine"" refers to high-end, refined French cuisine that is timeless/classic.  
- ""classicfrenchcuisine"" points to the same general concept: French cuisine that is classic or traditional.  
- Although the target has the added nuance of ""haute"" (high cuisine), ""classic"" is close to ""timeless"" and both refer to well-regarded French cuisine. So the semantics are largely overlapping and point to roughly the same entity.  
- Therefore, the response is relevant and semantically close to the target.

Score: 1

---

**idx_1**:  
- Target: ""contemporaryfrench""  
- Response: ""classicfrenchcuisine""  

Analysis:  
- Target is ""contemporaryfrench"" (modern French cuisine)  
- Response is ""classicfrenchcuisine"" (traditional, timeless French cuisine)  
- These refer to different culinary approaches in time: modern vs. classic. They do not share the same semantics or point to the same entity.  
- Thus, response is not relevant to the target.

Score: 0

---

### Final scores:

```json
{
    ""idx_0"": 1,
    ""idx_1"": 0
}
```",timelessfrenchhautecuisine,classicfrenchcuisine,1.0,key_match
,,lecinq,Le Cinq,1.0,"Let's analyze each pair carefully against the provided criterion:

Criterion summary:  
- Semantics need to be approximately the same, or point to the same entity.  
- No need for strict word-for-word matching.

---

**idx_0**  
- Response: '9placedesvosges,paris,75004'  
- Target: '9placedesvosges,75004paris'  

Analysis:  
- Both contain the key elements: ""9placedesvosges"", ""paris"", ""75004"" (a postal code).  
- The order differs slightly, but criteria allow approximate semantics and pointing to the same entity.  
- Despite the lack of spaces, both strings indicate the same address.  

Verdict: Score = 1

---

**idx_1**  
- Response: '31avenuegeorgev,75008paris'  
- Target: '31av.georgev,75008paris'  

Analysis:  
- Both include the key components: ""31"", ""avenue/georgev"" (noting ""av."" is abbreviation but semantics match), ""75008"", and ""paris"".  
- The response uses ""avenuegeorgev"" vs. ""av.georgev"" in target. This is an equivalent semantic representation.  
- All elements are the same with no major difference in meaning or entity referenced.  

Verdict: Score = 1

---

### Final scoring results:

```json
{
    ""idx_0"": 1,
    ""idx_1"": 1
}
```
","31av.georgev,75008paris","31avenuegeorgev,75008paris",0.0,"Let's analyze each idx item according to the criterion:

Criterion summary:  
- The response and the standard answer should have approximately the same semantics or point to the same entity.  
- No need for word-for-word correspondence, and one-to-one matching is unnecessary.  
- It is sufficient if the content is relevant.

---

**idx_0**:  
- Target: ""timelessfrenchhautecuisine""  
- Response: ""classicfrenchcuisine""  

Analysis:  
- ""timelessfrenchhautecuisine"" refers to high-end, refined French cuisine that is timeless/classic.  
- ""classicfrenchcuisine"" points to the same general concept: French cuisine that is classic or traditional.  
- Although the target has the added nuance of ""haute"" (high cuisine), ""classic"" is close to ""timeless"" and both refer to well-regarded French cuisine. So the semantics are largely overlapping and point to roughly the same entity.  
- Therefore, the response is relevant and semantically close to the target.

Score: 1

---

**idx_1**:  
- Target: ""contemporaryfrench""  
- Response: ""classicfrenchcuisine""  

Analysis:  
- Target is ""contemporaryfrench"" (modern French cuisine)  
- Response is ""classicfrenchcuisine"" (traditional, timeless French cuisine)  
- These refer to different culinary approaches in time: modern vs. classic. They do not share the same semantics or point to the same entity.  
- Thus, response is not relevant to the target.

Score: 0

---

### Final scores:

```json
{
    ""idx_0"": 1,
    ""idx_1"": 0
}
```",contemporaryfrench,classicfrenchcuisine,1.0,key_match
1.0,,allénoparisaupavillonledoyen,,,,"8av.dutuit,75008paris",,,,refinedfrenchclassicwithmorderntechniques,,,
1.0,,arpège,,,,"84ruedevarenne,75007paris",,,,vegetable-forward，garden-inspiredfrench,,,
1.0,,kei,,,,"5ruecoqhéron,75001paris",,,,franco-japanesefusion,,,
1.0,,legabriel-lareserveparis,,,,"42av.gabriel,75008paris",,,,frenchwithglobalinspirations,,,
1.0,,leprécatelan,,,,"routedesuresnes–boisdeboulogne,75016paris",,,,"creative,contemporary",,,
1.0,,pierregagnaire,,,,"6ruebalzac,75008paris",,,,avant-gardefrench,,,
1.0,,plénitude,,,,"8quaidulouvre,75001paris(chevalblancparishotel)",,,,artisticfrenchwithsauce-centricdishes,,,
1.0,,épicure,,,,"112ruedufaubourgsaint-honoré,75008paris",,,,hautefrench(traditionalwithinnovativetwists),,,
