exist_flag_gt,exist_flag_response,nationalparkname,nationalparkname_before_map,2023totalvisitorspending(milliondollars)_number_near,2023totalvisitorspending(milliondollars)_number_near_eval_msg,2023totalvisitorspending(milliondollars)_query,2023totalvisitorspending(milliondollars)_response,2023visitorsnumber(million)_number_near,2023visitorsnumber(million)_number_near_eval_msg,2023visitorsnumber(million)_query,2023visitorsnumber(million)_response,huntingregulations_llm_judge,huntingregulations_llm_judge_eval_msg,huntingregulations_query,huntingregulations_response,mailingaddress_llm_judge,mailingaddress_llm_judge_eval_msg,mailingaddress_query,mailingaddress_response,nationalparkname_exact_match,nationalparkname_exact_match_eval_msg,state(s)_llm_judge,state(s)_llm_judge_eval_msg,state(s)_query,state(s)_response,superintendent_llm_judge,superintendent_llm_judge_eval_msg,superintendent_query,superintendent_response
,,pearlharbornationalmemorial,Pearl Harbor National Memorial,0.0,"number not convertable, response: None, target: 327.2",327.20,NULL,0.0,"number not convertable, response: None, target: 1.7",1.7,NULL,0.0,"Let's analyze each idx item according to the criterion:

Criterion: It is sufficient if the semantics are approximately the same as the reference answer or if they point to the same entity. Just focus on the overall regulation if hunting is prohibited or allowed.

Note regarding the responses: All responses are ""nan"" (likely missing or not provided).

Targets: All standard answers indicate hunting is prohibited in the specified areas (variously stated as ""hunting prohibited,"" ""all hunting prohibited,"" or more detailed explanations indicating hunting is not allowed).

Given the responses are all ""nan"" (i.e., no response), this indicates no valid answer provided that corresponds to the target.

Thus, each item should receive 0 because no answer is given which can be evaluated as correct.

---

Final scoring:

```json
{
  ""idx_0"": 0,
  ""idx_1"": 0,
  ""idx_2"": 0,
  ""idx_3"": 0,
  ""idx_4"": 0,
  ""idx_5"": 0,
  ""idx_6"": 0,
  ""idx_7"": 0,
  ""idx_8"": 0,
  ""idx_9"": 0,
  ""idx_10"": 0,
  ""idx_11"": 0,
  ""idx_12"": 0
}
```",allhuntingprohibited(memorialgrounds&waters).,nan,0.0,"Let's analyze each idx comparing the response against the target considering the criterion:

- Criterion summary: Semantics being approximately the same or pointing to the same entity is sufficient. No need for word-for-word.

---

### Analysis

**idx_0**  
Response: 'nan'  
Target: '1arizonamemorialpl,honoluluhi96818'  
Response is 'nan' which seems to represent no answer, different from the target. No semantic similarity.  
Score: 0

**idx_1**  
Response: 'nan'  
Target: '1muirwoodsrd,millvalleyca94941'  
Same as above. Response is 'nan' (no answer)  
Score: 0

**idx_2**  
Response: 'nan'  
Target: '13000sd-244,keystonesd57751'  
Same as above. No match.  
Score: 0

**idx_3**  
Response: 'nan'  
Target: 'pobox907,moabut84532'  
No answer, no match.  
Score: 0

**idx_4**  
Response: 'p.o.box570,alamogordo,nm88311'  
Target: 'pobox1086,hollomanafbnm88330'  
Response and target both appear to be P.O. Box addresses, but boxes and cities differ ('p.o.box570, alamogordo, nm88311' vs. 'pobox1086, holloman afb nm 88330'). Different addresses/entities. Not equivalent.  
Score: 0

**idx_5**  
Response: 'nan'  
Target: 'zionnationalpark\n1zionparkblvd.\nspringdale,ut84767'  
No answer, target is Zion National Park address. No match.  
Score: 0

**idx_6**  
Response: 'nan'  
Target: 'pobox168,yellowstonenpwy82190'  
No answer.  
Score: 0

**idx_7**  
Response: 'nan'  
Target: 'pobox177,barharborme04609'  
No answer.  
Score: 0

**idx_8**  
Response: 'nan'  
Target: 'pobox7,craterlakeor97604'  
No answer.  
Score: 0

**idx_9**  
Response: 'nan'  
Target: 'pobox369,makawaohi96768'  
No answer.  
Score: 0

**idx_10**  
Response: 'nan'  
Target: '107parkheadquartersrd,gatlinburgtn37738'  
No answer.  
Score: 0

**idx_11**  
Response: 'nan'  
Target: '1111secondstreet\ncrescentcity,ca95531'  
No answer.  
Score: 0

**idx_12**  
Response: 'nan'  
Target: '2282resourceblvd,moabut84532'  
No answer.  
Score: 0

---

### Final scoring results in JSON:

```json
{
  ""idx_0"": 0,
  ""idx_1"": 0,
  ""idx_2"": 0,
  ""idx_3"": 0,
  ""idx_4"": 0,
  ""idx_5"": 0,
  ""idx_6"": 0,
  ""idx_7"": 0,
  ""idx_8"": 0,
  ""idx_9"": 0,
  ""idx_10"": 0,
  ""idx_11"": 0,
  ""idx_12"": 0
}
```","1arizonamemorialpl,honoluluhi96818",nan,1.0,key_match,1.0,"Let's analyze each item according to the criterion: ""It is sufficient if the semantics are approximately the same as the reference answer or if they point to the same entity.""

1. idx_0: response ""hawaii"" vs target ""hawaiʻi""  
   - The response uses ""hawaii,"" the target uses ""hawaiʻi"" (with the ʻokina). Semantically, both point to the same entity, the state of Hawaii. So correct.

2. idx_1: ""california"" vs ""california""  
   - Exact match, correct.

3. idx_2: ""southdakota"" vs ""southdakota""  
   - Exact match, correct.

4. idx_3: ""utah"" vs ""utah""  
   - Exact match, correct.

5. idx_4: ""newmexico"" vs ""newmexico""  
   - Exact match, correct.

6. idx_5: ""utah"" vs ""utah""  
   - Exact match, correct.

7. idx_6: ""wyoming,montana,idaho"" vs ""wyoming,montana,idaho""  
   - Exact match, correct.

8. idx_7: ""maine"" vs ""maine""  
   - Exact match, correct.

9. idx_8: ""oregon"" vs ""oregon""  
   - Exact match, correct.

10. idx_9: ""hawaii"" vs ""hawaiʻi""  
    - Same as idx_0, both refer to the same state, so correct.

11. idx_10: ""tennessee,northcarolina"" vs ""northcarolina,tennessee""  
    - The order is different, but entities are the same, so correct.

12. idx_11: ""california"" vs ""california""  
    - Exact match, correct.

13. idx_12: ""utah"" vs ""utah""  
    - Exact match, correct.

Since all responses point to the same entities as targets despite minor formatting (order or ʻokina), all get 1.

Final scoring JSON:

```json
{
    ""idx_0"": 1,
    ""idx_1"": 1,
    ""idx_2"": 1,
    ""idx_3"": 1,
    ""idx_4"": 1,
    ""idx_5"": 1,
    ""idx_6"": 1,
    ""idx_7"": 1,
    ""idx_8"": 1,
    ""idx_9"": 1,
    ""idx_10"": 1,
    ""idx_11"": 1,
    ""idx_12"": 1
}
```",hawaiʻi,hawaii,0.0,"Let's analyze each idx step by step:

- idx_0: response = 'nan'; target = 'tomleatherman'  
  The response is 'nan', which presumably means ""no answer"" or ""not a number"" (no valid response). Target is a valid name. The criteria say semantics should be approximately the same or point to the same entity. Here, 'nan' does not correspond in any way to 'tomleatherman'. Score: 0

- idx_1: response = 'nan'; target = 'davidsmith'  
  Same reasoning as above. Score: 0

- idx_2: response = 'nan'; target = 'michellewheatley'  
  Same reasoning. Score: 0

- idx_3: response = 'nan'; target = 'lenapace'  
  Same reasoning. Score: 0

- idx_4: response = 'mariesauter'; target = 'gerardogonzalez'  
  Response is a different name than target. The criteria require approximate semantic equivalence or refer to the same entity. Names are different, so no match. Score: 0

- idx_5: response = 'nan'; target = 'jeffbradybaugh'  
  No match. Score: 0

- idx_6: response = 'nan'; target = 'cameron(cam)sholly'  
  No match. Score: 0

- idx_7: response = 'nan'; target = 'kevinschneider'  
  No match. Score: 0

- idx_8: response = 'nan'; target = 'kevinheatley'  
  No match. Score: 0

- idx_9: response = 'nan'; target = 'nataliegates'  
  No match. Score: 0

- idx_10: response = 'nan'; target = 'cassiuscash'  
  No match. Score: 0

- idx_11: response = 'nan'; target = 'leonelarguello'  
  No match. Score: 0

- idx_12: response = 'nan'; target = 'lenapace'  
  No match. Score: 0

Final Scores:

```json
{
  ""idx_0"": 0,
  ""idx_1"": 0,
  ""idx_2"": 0,
  ""idx_3"": 0,
  ""idx_4"": 0,
  ""idx_5"": 0,
  ""idx_6"": 0,
  ""idx_7"": 0,
  ""idx_8"": 0,
  ""idx_9"": 0,
  ""idx_10"": 0,
  ""idx_11"": 0,
  ""idx_12"": 0
}
```",tomleatherman,nan
,,muirwoodsnationalmonument,Muir Woods National Monument,0.0,"number not convertable, response: None, target: 101.03",101.03,NULL,0.0,"number not convertable, response: None, target: 0.81",0.81,NULL,0.0,"Let's analyze each idx item according to the criterion:

Criterion: It is sufficient if the semantics are approximately the same as the reference answer or if they point to the same entity. Just focus on the overall regulation if hunting is prohibited or allowed.

Note regarding the responses: All responses are ""nan"" (likely missing or not provided).

Targets: All standard answers indicate hunting is prohibited in the specified areas (variously stated as ""hunting prohibited,"" ""all hunting prohibited,"" or more detailed explanations indicating hunting is not allowed).

Given the responses are all ""nan"" (i.e., no response), this indicates no valid answer provided that corresponds to the target.

Thus, each item should receive 0 because no answer is given which can be evaluated as correct.

---

Final scoring:

```json
{
  ""idx_0"": 0,
  ""idx_1"": 0,
  ""idx_2"": 0,
  ""idx_3"": 0,
  ""idx_4"": 0,
  ""idx_5"": 0,
  ""idx_6"": 0,
  ""idx_7"": 0,
  ""idx_8"": 0,
  ""idx_9"": 0,
  ""idx_10"": 0,
  ""idx_11"": 0,
  ""idx_12"": 0
}
```",huntingprohibitedthroughoutthemonument.,nan,0.0,"Let's analyze each idx comparing the response against the target considering the criterion:

- Criterion summary: Semantics being approximately the same or pointing to the same entity is sufficient. No need for word-for-word.

---

### Analysis

**idx_0**  
Response: 'nan'  
Target: '1arizonamemorialpl,honoluluhi96818'  
Response is 'nan' which seems to represent no answer, different from the target. No semantic similarity.  
Score: 0

**idx_1**  
Response: 'nan'  
Target: '1muirwoodsrd,millvalleyca94941'  
Same as above. Response is 'nan' (no answer)  
Score: 0

**idx_2**  
Response: 'nan'  
Target: '13000sd-244,keystonesd57751'  
Same as above. No match.  
Score: 0

**idx_3**  
Response: 'nan'  
Target: 'pobox907,moabut84532'  
No answer, no match.  
Score: 0

**idx_4**  
Response: 'p.o.box570,alamogordo,nm88311'  
Target: 'pobox1086,hollomanafbnm88330'  
Response and target both appear to be P.O. Box addresses, but boxes and cities differ ('p.o.box570, alamogordo, nm88311' vs. 'pobox1086, holloman afb nm 88330'). Different addresses/entities. Not equivalent.  
Score: 0

**idx_5**  
Response: 'nan'  
Target: 'zionnationalpark\n1zionparkblvd.\nspringdale,ut84767'  
No answer, target is Zion National Park address. No match.  
Score: 0

**idx_6**  
Response: 'nan'  
Target: 'pobox168,yellowstonenpwy82190'  
No answer.  
Score: 0

**idx_7**  
Response: 'nan'  
Target: 'pobox177,barharborme04609'  
No answer.  
Score: 0

**idx_8**  
Response: 'nan'  
Target: 'pobox7,craterlakeor97604'  
No answer.  
Score: 0

**idx_9**  
Response: 'nan'  
Target: 'pobox369,makawaohi96768'  
No answer.  
Score: 0

**idx_10**  
Response: 'nan'  
Target: '107parkheadquartersrd,gatlinburgtn37738'  
No answer.  
Score: 0

**idx_11**  
Response: 'nan'  
Target: '1111secondstreet\ncrescentcity,ca95531'  
No answer.  
Score: 0

**idx_12**  
Response: 'nan'  
Target: '2282resourceblvd,moabut84532'  
No answer.  
Score: 0

---

### Final scoring results in JSON:

```json
{
  ""idx_0"": 0,
  ""idx_1"": 0,
  ""idx_2"": 0,
  ""idx_3"": 0,
  ""idx_4"": 0,
  ""idx_5"": 0,
  ""idx_6"": 0,
  ""idx_7"": 0,
  ""idx_8"": 0,
  ""idx_9"": 0,
  ""idx_10"": 0,
  ""idx_11"": 0,
  ""idx_12"": 0
}
```","1muirwoodsrd,millvalleyca94941",nan,1.0,key_match,1.0,"Let's analyze each item according to the criterion: ""It is sufficient if the semantics are approximately the same as the reference answer or if they point to the same entity.""

1. idx_0: response ""hawaii"" vs target ""hawaiʻi""  
   - The response uses ""hawaii,"" the target uses ""hawaiʻi"" (with the ʻokina). Semantically, both point to the same entity, the state of Hawaii. So correct.

2. idx_1: ""california"" vs ""california""  
   - Exact match, correct.

3. idx_2: ""southdakota"" vs ""southdakota""  
   - Exact match, correct.

4. idx_3: ""utah"" vs ""utah""  
   - Exact match, correct.

5. idx_4: ""newmexico"" vs ""newmexico""  
   - Exact match, correct.

6. idx_5: ""utah"" vs ""utah""  
   - Exact match, correct.

7. idx_6: ""wyoming,montana,idaho"" vs ""wyoming,montana,idaho""  
   - Exact match, correct.

8. idx_7: ""maine"" vs ""maine""  
   - Exact match, correct.

9. idx_8: ""oregon"" vs ""oregon""  
   - Exact match, correct.

10. idx_9: ""hawaii"" vs ""hawaiʻi""  
    - Same as idx_0, both refer to the same state, so correct.

11. idx_10: ""tennessee,northcarolina"" vs ""northcarolina,tennessee""  
    - The order is different, but entities are the same, so correct.

12. idx_11: ""california"" vs ""california""  
    - Exact match, correct.

13. idx_12: ""utah"" vs ""utah""  
    - Exact match, correct.

Since all responses point to the same entities as targets despite minor formatting (order or ʻokina), all get 1.

Final scoring JSON:

```json
{
    ""idx_0"": 1,
    ""idx_1"": 1,
    ""idx_2"": 1,
    ""idx_3"": 1,
    ""idx_4"": 1,
    ""idx_5"": 1,
    ""idx_6"": 1,
    ""idx_7"": 1,
    ""idx_8"": 1,
    ""idx_9"": 1,
    ""idx_10"": 1,
    ""idx_11"": 1,
    ""idx_12"": 1
}
```",california,california,0.0,"Let's analyze each idx step by step:

- idx_0: response = 'nan'; target = 'tomleatherman'  
  The response is 'nan', which presumably means ""no answer"" or ""not a number"" (no valid response). Target is a valid name. The criteria say semantics should be approximately the same or point to the same entity. Here, 'nan' does not correspond in any way to 'tomleatherman'. Score: 0

- idx_1: response = 'nan'; target = 'davidsmith'  
  Same reasoning as above. Score: 0

- idx_2: response = 'nan'; target = 'michellewheatley'  
  Same reasoning. Score: 0

- idx_3: response = 'nan'; target = 'lenapace'  
  Same reasoning. Score: 0

- idx_4: response = 'mariesauter'; target = 'gerardogonzalez'  
  Response is a different name than target. The criteria require approximate semantic equivalence or refer to the same entity. Names are different, so no match. Score: 0

- idx_5: response = 'nan'; target = 'jeffbradybaugh'  
  No match. Score: 0

- idx_6: response = 'nan'; target = 'cameron(cam)sholly'  
  No match. Score: 0

- idx_7: response = 'nan'; target = 'kevinschneider'  
  No match. Score: 0

- idx_8: response = 'nan'; target = 'kevinheatley'  
  No match. Score: 0

- idx_9: response = 'nan'; target = 'nataliegates'  
  No match. Score: 0

- idx_10: response = 'nan'; target = 'cassiuscash'  
  No match. Score: 0

- idx_11: response = 'nan'; target = 'leonelarguello'  
  No match. Score: 0

- idx_12: response = 'nan'; target = 'lenapace'  
  No match. Score: 0

Final Scores:

```json
{
  ""idx_0"": 0,
  ""idx_1"": 0,
  ""idx_2"": 0,
  ""idx_3"": 0,
  ""idx_4"": 0,
  ""idx_5"": 0,
  ""idx_6"": 0,
  ""idx_7"": 0,
  ""idx_8"": 0,
  ""idx_9"": 0,
  ""idx_10"": 0,
  ""idx_11"": 0,
  ""idx_12"": 0
}
```",davidsmith,nan
,,mountrushmorenationalmemorial,Mount Rushmore National Memorial,0.0,"number not convertable, response: None, target: 389.39",389.39,NULL,0.0,"number not convertable, response: None, target: 2.4",2.4,NULL,0.0,"Let's analyze each idx item according to the criterion:

Criterion: It is sufficient if the semantics are approximately the same as the reference answer or if they point to the same entity. Just focus on the overall regulation if hunting is prohibited or allowed.

Note regarding the responses: All responses are ""nan"" (likely missing or not provided).

Targets: All standard answers indicate hunting is prohibited in the specified areas (variously stated as ""hunting prohibited,"" ""all hunting prohibited,"" or more detailed explanations indicating hunting is not allowed).

Given the responses are all ""nan"" (i.e., no response), this indicates no valid answer provided that corresponds to the target.

Thus, each item should receive 0 because no answer is given which can be evaluated as correct.

---

Final scoring:

```json
{
  ""idx_0"": 0,
  ""idx_1"": 0,
  ""idx_2"": 0,
  ""idx_3"": 0,
  ""idx_4"": 0,
  ""idx_5"": 0,
  ""idx_6"": 0,
  ""idx_7"": 0,
  ""idx_8"": 0,
  ""idx_9"": 0,
  ""idx_10"": 0,
  ""idx_11"": 0,
  ""idx_12"": 0
}
```",huntingprohibited.,nan,0.0,"Let's analyze each idx comparing the response against the target considering the criterion:

- Criterion summary: Semantics being approximately the same or pointing to the same entity is sufficient. No need for word-for-word.

---

### Analysis

**idx_0**  
Response: 'nan'  
Target: '1arizonamemorialpl,honoluluhi96818'  
Response is 'nan' which seems to represent no answer, different from the target. No semantic similarity.  
Score: 0

**idx_1**  
Response: 'nan'  
Target: '1muirwoodsrd,millvalleyca94941'  
Same as above. Response is 'nan' (no answer)  
Score: 0

**idx_2**  
Response: 'nan'  
Target: '13000sd-244,keystonesd57751'  
Same as above. No match.  
Score: 0

**idx_3**  
Response: 'nan'  
Target: 'pobox907,moabut84532'  
No answer, no match.  
Score: 0

**idx_4**  
Response: 'p.o.box570,alamogordo,nm88311'  
Target: 'pobox1086,hollomanafbnm88330'  
Response and target both appear to be P.O. Box addresses, but boxes and cities differ ('p.o.box570, alamogordo, nm88311' vs. 'pobox1086, holloman afb nm 88330'). Different addresses/entities. Not equivalent.  
Score: 0

**idx_5**  
Response: 'nan'  
Target: 'zionnationalpark\n1zionparkblvd.\nspringdale,ut84767'  
No answer, target is Zion National Park address. No match.  
Score: 0

**idx_6**  
Response: 'nan'  
Target: 'pobox168,yellowstonenpwy82190'  
No answer.  
Score: 0

**idx_7**  
Response: 'nan'  
Target: 'pobox177,barharborme04609'  
No answer.  
Score: 0

**idx_8**  
Response: 'nan'  
Target: 'pobox7,craterlakeor97604'  
No answer.  
Score: 0

**idx_9**  
Response: 'nan'  
Target: 'pobox369,makawaohi96768'  
No answer.  
Score: 0

**idx_10**  
Response: 'nan'  
Target: '107parkheadquartersrd,gatlinburgtn37738'  
No answer.  
Score: 0

**idx_11**  
Response: 'nan'  
Target: '1111secondstreet\ncrescentcity,ca95531'  
No answer.  
Score: 0

**idx_12**  
Response: 'nan'  
Target: '2282resourceblvd,moabut84532'  
No answer.  
Score: 0

---

### Final scoring results in JSON:

```json
{
  ""idx_0"": 0,
  ""idx_1"": 0,
  ""idx_2"": 0,
  ""idx_3"": 0,
  ""idx_4"": 0,
  ""idx_5"": 0,
  ""idx_6"": 0,
  ""idx_7"": 0,
  ""idx_8"": 0,
  ""idx_9"": 0,
  ""idx_10"": 0,
  ""idx_11"": 0,
  ""idx_12"": 0
}
```","13000sd-244,keystonesd57751",nan,1.0,key_match,1.0,"Let's analyze each item according to the criterion: ""It is sufficient if the semantics are approximately the same as the reference answer or if they point to the same entity.""

1. idx_0: response ""hawaii"" vs target ""hawaiʻi""  
   - The response uses ""hawaii,"" the target uses ""hawaiʻi"" (with the ʻokina). Semantically, both point to the same entity, the state of Hawaii. So correct.

2. idx_1: ""california"" vs ""california""  
   - Exact match, correct.

3. idx_2: ""southdakota"" vs ""southdakota""  
   - Exact match, correct.

4. idx_3: ""utah"" vs ""utah""  
   - Exact match, correct.

5. idx_4: ""newmexico"" vs ""newmexico""  
   - Exact match, correct.

6. idx_5: ""utah"" vs ""utah""  
   - Exact match, correct.

7. idx_6: ""wyoming,montana,idaho"" vs ""wyoming,montana,idaho""  
   - Exact match, correct.

8. idx_7: ""maine"" vs ""maine""  
   - Exact match, correct.

9. idx_8: ""oregon"" vs ""oregon""  
   - Exact match, correct.

10. idx_9: ""hawaii"" vs ""hawaiʻi""  
    - Same as idx_0, both refer to the same state, so correct.

11. idx_10: ""tennessee,northcarolina"" vs ""northcarolina,tennessee""  
    - The order is different, but entities are the same, so correct.

12. idx_11: ""california"" vs ""california""  
    - Exact match, correct.

13. idx_12: ""utah"" vs ""utah""  
    - Exact match, correct.

Since all responses point to the same entities as targets despite minor formatting (order or ʻokina), all get 1.

Final scoring JSON:

```json
{
    ""idx_0"": 1,
    ""idx_1"": 1,
    ""idx_2"": 1,
    ""idx_3"": 1,
    ""idx_4"": 1,
    ""idx_5"": 1,
    ""idx_6"": 1,
    ""idx_7"": 1,
    ""idx_8"": 1,
    ""idx_9"": 1,
    ""idx_10"": 1,
    ""idx_11"": 1,
    ""idx_12"": 1
}
```",southdakota,southdakota,0.0,"Let's analyze each idx step by step:

- idx_0: response = 'nan'; target = 'tomleatherman'  
  The response is 'nan', which presumably means ""no answer"" or ""not a number"" (no valid response). Target is a valid name. The criteria say semantics should be approximately the same or point to the same entity. Here, 'nan' does not correspond in any way to 'tomleatherman'. Score: 0

- idx_1: response = 'nan'; target = 'davidsmith'  
  Same reasoning as above. Score: 0

- idx_2: response = 'nan'; target = 'michellewheatley'  
  Same reasoning. Score: 0

- idx_3: response = 'nan'; target = 'lenapace'  
  Same reasoning. Score: 0

- idx_4: response = 'mariesauter'; target = 'gerardogonzalez'  
  Response is a different name than target. The criteria require approximate semantic equivalence or refer to the same entity. Names are different, so no match. Score: 0

- idx_5: response = 'nan'; target = 'jeffbradybaugh'  
  No match. Score: 0

- idx_6: response = 'nan'; target = 'cameron(cam)sholly'  
  No match. Score: 0

- idx_7: response = 'nan'; target = 'kevinschneider'  
  No match. Score: 0

- idx_8: response = 'nan'; target = 'kevinheatley'  
  No match. Score: 0

- idx_9: response = 'nan'; target = 'nataliegates'  
  No match. Score: 0

- idx_10: response = 'nan'; target = 'cassiuscash'  
  No match. Score: 0

- idx_11: response = 'nan'; target = 'leonelarguello'  
  No match. Score: 0

- idx_12: response = 'nan'; target = 'lenapace'  
  No match. Score: 0

Final Scores:

```json
{
  ""idx_0"": 0,
  ""idx_1"": 0,
  ""idx_2"": 0,
  ""idx_3"": 0,
  ""idx_4"": 0,
  ""idx_5"": 0,
  ""idx_6"": 0,
  ""idx_7"": 0,
  ""idx_8"": 0,
  ""idx_9"": 0,
  ""idx_10"": 0,
  ""idx_11"": 0,
  ""idx_12"": 0
}
```",michellewheatley,nan
,,archesnationalpark,Arches National Park,1.0,"number near in range 5.0%, response: 283.0, target: 283.83",283.83,283.0,1.0,"number near in range 5.0%, response: 1.5, target: 1.5",1.5,1.5,0.0,"Let's analyze each idx item according to the criterion:

Criterion: It is sufficient if the semantics are approximately the same as the reference answer or if they point to the same entity. Just focus on the overall regulation if hunting is prohibited or allowed.

Note regarding the responses: All responses are ""nan"" (likely missing or not provided).

Targets: All standard answers indicate hunting is prohibited in the specified areas (variously stated as ""hunting prohibited,"" ""all hunting prohibited,"" or more detailed explanations indicating hunting is not allowed).

Given the responses are all ""nan"" (i.e., no response), this indicates no valid answer provided that corresponds to the target.

Thus, each item should receive 0 because no answer is given which can be evaluated as correct.

---

Final scoring:

```json
{
  ""idx_0"": 0,
  ""idx_1"": 0,
  ""idx_2"": 0,
  ""idx_3"": 0,
  ""idx_4"": 0,
  ""idx_5"": 0,
  ""idx_6"": 0,
  ""idx_7"": 0,
  ""idx_8"": 0,
  ""idx_9"": 0,
  ""idx_10"": 0,
  ""idx_11"": 0,
  ""idx_12"": 0
}
```",huntingisprohibitedwithinarchesnationalpark.,nan,0.0,"Let's analyze each idx comparing the response against the target considering the criterion:

- Criterion summary: Semantics being approximately the same or pointing to the same entity is sufficient. No need for word-for-word.

---

### Analysis

**idx_0**  
Response: 'nan'  
Target: '1arizonamemorialpl,honoluluhi96818'  
Response is 'nan' which seems to represent no answer, different from the target. No semantic similarity.  
Score: 0

**idx_1**  
Response: 'nan'  
Target: '1muirwoodsrd,millvalleyca94941'  
Same as above. Response is 'nan' (no answer)  
Score: 0

**idx_2**  
Response: 'nan'  
Target: '13000sd-244,keystonesd57751'  
Same as above. No match.  
Score: 0

**idx_3**  
Response: 'nan'  
Target: 'pobox907,moabut84532'  
No answer, no match.  
Score: 0

**idx_4**  
Response: 'p.o.box570,alamogordo,nm88311'  
Target: 'pobox1086,hollomanafbnm88330'  
Response and target both appear to be P.O. Box addresses, but boxes and cities differ ('p.o.box570, alamogordo, nm88311' vs. 'pobox1086, holloman afb nm 88330'). Different addresses/entities. Not equivalent.  
Score: 0

**idx_5**  
Response: 'nan'  
Target: 'zionnationalpark\n1zionparkblvd.\nspringdale,ut84767'  
No answer, target is Zion National Park address. No match.  
Score: 0

**idx_6**  
Response: 'nan'  
Target: 'pobox168,yellowstonenpwy82190'  
No answer.  
Score: 0

**idx_7**  
Response: 'nan'  
Target: 'pobox177,barharborme04609'  
No answer.  
Score: 0

**idx_8**  
Response: 'nan'  
Target: 'pobox7,craterlakeor97604'  
No answer.  
Score: 0

**idx_9**  
Response: 'nan'  
Target: 'pobox369,makawaohi96768'  
No answer.  
Score: 0

**idx_10**  
Response: 'nan'  
Target: '107parkheadquartersrd,gatlinburgtn37738'  
No answer.  
Score: 0

**idx_11**  
Response: 'nan'  
Target: '1111secondstreet\ncrescentcity,ca95531'  
No answer.  
Score: 0

**idx_12**  
Response: 'nan'  
Target: '2282resourceblvd,moabut84532'  
No answer.  
Score: 0

---

### Final scoring results in JSON:

```json
{
  ""idx_0"": 0,
  ""idx_1"": 0,
  ""idx_2"": 0,
  ""idx_3"": 0,
  ""idx_4"": 0,
  ""idx_5"": 0,
  ""idx_6"": 0,
  ""idx_7"": 0,
  ""idx_8"": 0,
  ""idx_9"": 0,
  ""idx_10"": 0,
  ""idx_11"": 0,
  ""idx_12"": 0
}
```","pobox907,moabut84532",nan,1.0,key_match,1.0,"Let's analyze each item according to the criterion: ""It is sufficient if the semantics are approximately the same as the reference answer or if they point to the same entity.""

1. idx_0: response ""hawaii"" vs target ""hawaiʻi""  
   - The response uses ""hawaii,"" the target uses ""hawaiʻi"" (with the ʻokina). Semantically, both point to the same entity, the state of Hawaii. So correct.

2. idx_1: ""california"" vs ""california""  
   - Exact match, correct.

3. idx_2: ""southdakota"" vs ""southdakota""  
   - Exact match, correct.

4. idx_3: ""utah"" vs ""utah""  
   - Exact match, correct.

5. idx_4: ""newmexico"" vs ""newmexico""  
   - Exact match, correct.

6. idx_5: ""utah"" vs ""utah""  
   - Exact match, correct.

7. idx_6: ""wyoming,montana,idaho"" vs ""wyoming,montana,idaho""  
   - Exact match, correct.

8. idx_7: ""maine"" vs ""maine""  
   - Exact match, correct.

9. idx_8: ""oregon"" vs ""oregon""  
   - Exact match, correct.

10. idx_9: ""hawaii"" vs ""hawaiʻi""  
    - Same as idx_0, both refer to the same state, so correct.

11. idx_10: ""tennessee,northcarolina"" vs ""northcarolina,tennessee""  
    - The order is different, but entities are the same, so correct.

12. idx_11: ""california"" vs ""california""  
    - Exact match, correct.

13. idx_12: ""utah"" vs ""utah""  
    - Exact match, correct.

Since all responses point to the same entities as targets despite minor formatting (order or ʻokina), all get 1.

Final scoring JSON:

```json
{
    ""idx_0"": 1,
    ""idx_1"": 1,
    ""idx_2"": 1,
    ""idx_3"": 1,
    ""idx_4"": 1,
    ""idx_5"": 1,
    ""idx_6"": 1,
    ""idx_7"": 1,
    ""idx_8"": 1,
    ""idx_9"": 1,
    ""idx_10"": 1,
    ""idx_11"": 1,
    ""idx_12"": 1
}
```",utah,utah,0.0,"Let's analyze each idx step by step:

- idx_0: response = 'nan'; target = 'tomleatherman'  
  The response is 'nan', which presumably means ""no answer"" or ""not a number"" (no valid response). Target is a valid name. The criteria say semantics should be approximately the same or point to the same entity. Here, 'nan' does not correspond in any way to 'tomleatherman'. Score: 0

- idx_1: response = 'nan'; target = 'davidsmith'  
  Same reasoning as above. Score: 0

- idx_2: response = 'nan'; target = 'michellewheatley'  
  Same reasoning. Score: 0

- idx_3: response = 'nan'; target = 'lenapace'  
  Same reasoning. Score: 0

- idx_4: response = 'mariesauter'; target = 'gerardogonzalez'  
  Response is a different name than target. The criteria require approximate semantic equivalence or refer to the same entity. Names are different, so no match. Score: 0

- idx_5: response = 'nan'; target = 'jeffbradybaugh'  
  No match. Score: 0

- idx_6: response = 'nan'; target = 'cameron(cam)sholly'  
  No match. Score: 0

- idx_7: response = 'nan'; target = 'kevinschneider'  
  No match. Score: 0

- idx_8: response = 'nan'; target = 'kevinheatley'  
  No match. Score: 0

- idx_9: response = 'nan'; target = 'nataliegates'  
  No match. Score: 0

- idx_10: response = 'nan'; target = 'cassiuscash'  
  No match. Score: 0

- idx_11: response = 'nan'; target = 'leonelarguello'  
  No match. Score: 0

- idx_12: response = 'nan'; target = 'lenapace'  
  No match. Score: 0

Final Scores:

```json
{
  ""idx_0"": 0,
  ""idx_1"": 0,
  ""idx_2"": 0,
  ""idx_3"": 0,
  ""idx_4"": 0,
  ""idx_5"": 0,
  ""idx_6"": 0,
  ""idx_7"": 0,
  ""idx_8"": 0,
  ""idx_9"": 0,
  ""idx_10"": 0,
  ""idx_11"": 0,
  ""idx_12"": 0
}
```",lenapace,nan
,,whitesandsnationalpark,White Sands National Park,0.0,"number not convertable, response: None, target: 44.45",44.45,NULL,0.0,"number not convertable, response: None, target: 0.729",0.729,NULL,0.0,"Let's analyze each idx item according to the criterion:

Criterion: It is sufficient if the semantics are approximately the same as the reference answer or if they point to the same entity. Just focus on the overall regulation if hunting is prohibited or allowed.

Note regarding the responses: All responses are ""nan"" (likely missing or not provided).

Targets: All standard answers indicate hunting is prohibited in the specified areas (variously stated as ""hunting prohibited,"" ""all hunting prohibited,"" or more detailed explanations indicating hunting is not allowed).

Given the responses are all ""nan"" (i.e., no response), this indicates no valid answer provided that corresponds to the target.

Thus, each item should receive 0 because no answer is given which can be evaluated as correct.

---

Final scoring:

```json
{
  ""idx_0"": 0,
  ""idx_1"": 0,
  ""idx_2"": 0,
  ""idx_3"": 0,
  ""idx_4"": 0,
  ""idx_5"": 0,
  ""idx_6"": 0,
  ""idx_7"": 0,
  ""idx_8"": 0,
  ""idx_9"": 0,
  ""idx_10"": 0,
  ""idx_11"": 0,
  ""idx_12"": 0
}
```","huntingisgenerallyprohibitedwithinwhitesandsnationalpark.whitesandsnationalparkisaunitofthenationalparkservice,andthenpsprohibitsthetakingofparkresources,includingwildlife.whilehuntingisnotallowedwithintheparkitself,thereareopportunitiesforhuntingontheadjacentwhitesandsmissilerange,whichhasitsownspecificregulationsandpermitrequirements.",nan,0.0,"Let's analyze each idx comparing the response against the target considering the criterion:

- Criterion summary: Semantics being approximately the same or pointing to the same entity is sufficient. No need for word-for-word.

---

### Analysis

**idx_0**  
Response: 'nan'  
Target: '1arizonamemorialpl,honoluluhi96818'  
Response is 'nan' which seems to represent no answer, different from the target. No semantic similarity.  
Score: 0

**idx_1**  
Response: 'nan'  
Target: '1muirwoodsrd,millvalleyca94941'  
Same as above. Response is 'nan' (no answer)  
Score: 0

**idx_2**  
Response: 'nan'  
Target: '13000sd-244,keystonesd57751'  
Same as above. No match.  
Score: 0

**idx_3**  
Response: 'nan'  
Target: 'pobox907,moabut84532'  
No answer, no match.  
Score: 0

**idx_4**  
Response: 'p.o.box570,alamogordo,nm88311'  
Target: 'pobox1086,hollomanafbnm88330'  
Response and target both appear to be P.O. Box addresses, but boxes and cities differ ('p.o.box570, alamogordo, nm88311' vs. 'pobox1086, holloman afb nm 88330'). Different addresses/entities. Not equivalent.  
Score: 0

**idx_5**  
Response: 'nan'  
Target: 'zionnationalpark\n1zionparkblvd.\nspringdale,ut84767'  
No answer, target is Zion National Park address. No match.  
Score: 0

**idx_6**  
Response: 'nan'  
Target: 'pobox168,yellowstonenpwy82190'  
No answer.  
Score: 0

**idx_7**  
Response: 'nan'  
Target: 'pobox177,barharborme04609'  
No answer.  
Score: 0

**idx_8**  
Response: 'nan'  
Target: 'pobox7,craterlakeor97604'  
No answer.  
Score: 0

**idx_9**  
Response: 'nan'  
Target: 'pobox369,makawaohi96768'  
No answer.  
Score: 0

**idx_10**  
Response: 'nan'  
Target: '107parkheadquartersrd,gatlinburgtn37738'  
No answer.  
Score: 0

**idx_11**  
Response: 'nan'  
Target: '1111secondstreet\ncrescentcity,ca95531'  
No answer.  
Score: 0

**idx_12**  
Response: 'nan'  
Target: '2282resourceblvd,moabut84532'  
No answer.  
Score: 0

---

### Final scoring results in JSON:

```json
{
  ""idx_0"": 0,
  ""idx_1"": 0,
  ""idx_2"": 0,
  ""idx_3"": 0,
  ""idx_4"": 0,
  ""idx_5"": 0,
  ""idx_6"": 0,
  ""idx_7"": 0,
  ""idx_8"": 0,
  ""idx_9"": 0,
  ""idx_10"": 0,
  ""idx_11"": 0,
  ""idx_12"": 0
}
```","pobox1086,hollomanafbnm88330","p.o.box570,alamogordo,nm88311",1.0,key_match,1.0,"Let's analyze each item according to the criterion: ""It is sufficient if the semantics are approximately the same as the reference answer or if they point to the same entity.""

1. idx_0: response ""hawaii"" vs target ""hawaiʻi""  
   - The response uses ""hawaii,"" the target uses ""hawaiʻi"" (with the ʻokina). Semantically, both point to the same entity, the state of Hawaii. So correct.

2. idx_1: ""california"" vs ""california""  
   - Exact match, correct.

3. idx_2: ""southdakota"" vs ""southdakota""  
   - Exact match, correct.

4. idx_3: ""utah"" vs ""utah""  
   - Exact match, correct.

5. idx_4: ""newmexico"" vs ""newmexico""  
   - Exact match, correct.

6. idx_5: ""utah"" vs ""utah""  
   - Exact match, correct.

7. idx_6: ""wyoming,montana,idaho"" vs ""wyoming,montana,idaho""  
   - Exact match, correct.

8. idx_7: ""maine"" vs ""maine""  
   - Exact match, correct.

9. idx_8: ""oregon"" vs ""oregon""  
   - Exact match, correct.

10. idx_9: ""hawaii"" vs ""hawaiʻi""  
    - Same as idx_0, both refer to the same state, so correct.

11. idx_10: ""tennessee,northcarolina"" vs ""northcarolina,tennessee""  
    - The order is different, but entities are the same, so correct.

12. idx_11: ""california"" vs ""california""  
    - Exact match, correct.

13. idx_12: ""utah"" vs ""utah""  
    - Exact match, correct.

Since all responses point to the same entities as targets despite minor formatting (order or ʻokina), all get 1.

Final scoring JSON:

```json
{
    ""idx_0"": 1,
    ""idx_1"": 1,
    ""idx_2"": 1,
    ""idx_3"": 1,
    ""idx_4"": 1,
    ""idx_5"": 1,
    ""idx_6"": 1,
    ""idx_7"": 1,
    ""idx_8"": 1,
    ""idx_9"": 1,
    ""idx_10"": 1,
    ""idx_11"": 1,
    ""idx_12"": 1
}
```",newmexico,newmexico,0.0,"Let's analyze each idx step by step:

- idx_0: response = 'nan'; target = 'tomleatherman'  
  The response is 'nan', which presumably means ""no answer"" or ""not a number"" (no valid response). Target is a valid name. The criteria say semantics should be approximately the same or point to the same entity. Here, 'nan' does not correspond in any way to 'tomleatherman'. Score: 0

- idx_1: response = 'nan'; target = 'davidsmith'  
  Same reasoning as above. Score: 0

- idx_2: response = 'nan'; target = 'michellewheatley'  
  Same reasoning. Score: 0

- idx_3: response = 'nan'; target = 'lenapace'  
  Same reasoning. Score: 0

- idx_4: response = 'mariesauter'; target = 'gerardogonzalez'  
  Response is a different name than target. The criteria require approximate semantic equivalence or refer to the same entity. Names are different, so no match. Score: 0

- idx_5: response = 'nan'; target = 'jeffbradybaugh'  
  No match. Score: 0

- idx_6: response = 'nan'; target = 'cameron(cam)sholly'  
  No match. Score: 0

- idx_7: response = 'nan'; target = 'kevinschneider'  
  No match. Score: 0

- idx_8: response = 'nan'; target = 'kevinheatley'  
  No match. Score: 0

- idx_9: response = 'nan'; target = 'nataliegates'  
  No match. Score: 0

- idx_10: response = 'nan'; target = 'cassiuscash'  
  No match. Score: 0

- idx_11: response = 'nan'; target = 'leonelarguello'  
  No match. Score: 0

- idx_12: response = 'nan'; target = 'lenapace'  
  No match. Score: 0

Final Scores:

```json
{
  ""idx_0"": 0,
  ""idx_1"": 0,
  ""idx_2"": 0,
  ""idx_3"": 0,
  ""idx_4"": 0,
  ""idx_5"": 0,
  ""idx_6"": 0,
  ""idx_7"": 0,
  ""idx_8"": 0,
  ""idx_9"": 0,
  ""idx_10"": 0,
  ""idx_11"": 0,
  ""idx_12"": 0
}
```",gerardogonzalez,mariesauter
,,zionnationalpark,Zion National Park,0.0,"number not convertable, response: None, target: 676.04",676.04,NULL,0.0,"number not convertable, response: None, target: 4.6",4.6,NULL,0.0,"Let's analyze each idx item according to the criterion:

Criterion: It is sufficient if the semantics are approximately the same as the reference answer or if they point to the same entity. Just focus on the overall regulation if hunting is prohibited or allowed.

Note regarding the responses: All responses are ""nan"" (likely missing or not provided).

Targets: All standard answers indicate hunting is prohibited in the specified areas (variously stated as ""hunting prohibited,"" ""all hunting prohibited,"" or more detailed explanations indicating hunting is not allowed).

Given the responses are all ""nan"" (i.e., no response), this indicates no valid answer provided that corresponds to the target.

Thus, each item should receive 0 because no answer is given which can be evaluated as correct.

---

Final scoring:

```json
{
  ""idx_0"": 0,
  ""idx_1"": 0,
  ""idx_2"": 0,
  ""idx_3"": 0,
  ""idx_4"": 0,
  ""idx_5"": 0,
  ""idx_6"": 0,
  ""idx_7"": 0,
  ""idx_8"": 0,
  ""idx_9"": 0,
  ""idx_10"": 0,
  ""idx_11"": 0,
  ""idx_12"": 0
}
```",huntingprohibited.,nan,0.0,"Let's analyze each idx comparing the response against the target considering the criterion:

- Criterion summary: Semantics being approximately the same or pointing to the same entity is sufficient. No need for word-for-word.

---

### Analysis

**idx_0**  
Response: 'nan'  
Target: '1arizonamemorialpl,honoluluhi96818'  
Response is 'nan' which seems to represent no answer, different from the target. No semantic similarity.  
Score: 0

**idx_1**  
Response: 'nan'  
Target: '1muirwoodsrd,millvalleyca94941'  
Same as above. Response is 'nan' (no answer)  
Score: 0

**idx_2**  
Response: 'nan'  
Target: '13000sd-244,keystonesd57751'  
Same as above. No match.  
Score: 0

**idx_3**  
Response: 'nan'  
Target: 'pobox907,moabut84532'  
No answer, no match.  
Score: 0

**idx_4**  
Response: 'p.o.box570,alamogordo,nm88311'  
Target: 'pobox1086,hollomanafbnm88330'  
Response and target both appear to be P.O. Box addresses, but boxes and cities differ ('p.o.box570, alamogordo, nm88311' vs. 'pobox1086, holloman afb nm 88330'). Different addresses/entities. Not equivalent.  
Score: 0

**idx_5**  
Response: 'nan'  
Target: 'zionnationalpark\n1zionparkblvd.\nspringdale,ut84767'  
No answer, target is Zion National Park address. No match.  
Score: 0

**idx_6**  
Response: 'nan'  
Target: 'pobox168,yellowstonenpwy82190'  
No answer.  
Score: 0

**idx_7**  
Response: 'nan'  
Target: 'pobox177,barharborme04609'  
No answer.  
Score: 0

**idx_8**  
Response: 'nan'  
Target: 'pobox7,craterlakeor97604'  
No answer.  
Score: 0

**idx_9**  
Response: 'nan'  
Target: 'pobox369,makawaohi96768'  
No answer.  
Score: 0

**idx_10**  
Response: 'nan'  
Target: '107parkheadquartersrd,gatlinburgtn37738'  
No answer.  
Score: 0

**idx_11**  
Response: 'nan'  
Target: '1111secondstreet\ncrescentcity,ca95531'  
No answer.  
Score: 0

**idx_12**  
Response: 'nan'  
Target: '2282resourceblvd,moabut84532'  
No answer.  
Score: 0

---

### Final scoring results in JSON:

```json
{
  ""idx_0"": 0,
  ""idx_1"": 0,
  ""idx_2"": 0,
  ""idx_3"": 0,
  ""idx_4"": 0,
  ""idx_5"": 0,
  ""idx_6"": 0,
  ""idx_7"": 0,
  ""idx_8"": 0,
  ""idx_9"": 0,
  ""idx_10"": 0,
  ""idx_11"": 0,
  ""idx_12"": 0
}
```","zionnationalpark
1zionparkblvd.
springdale,ut84767",nan,1.0,key_match,1.0,"Let's analyze each item according to the criterion: ""It is sufficient if the semantics are approximately the same as the reference answer or if they point to the same entity.""

1. idx_0: response ""hawaii"" vs target ""hawaiʻi""  
   - The response uses ""hawaii,"" the target uses ""hawaiʻi"" (with the ʻokina). Semantically, both point to the same entity, the state of Hawaii. So correct.

2. idx_1: ""california"" vs ""california""  
   - Exact match, correct.

3. idx_2: ""southdakota"" vs ""southdakota""  
   - Exact match, correct.

4. idx_3: ""utah"" vs ""utah""  
   - Exact match, correct.

5. idx_4: ""newmexico"" vs ""newmexico""  
   - Exact match, correct.

6. idx_5: ""utah"" vs ""utah""  
   - Exact match, correct.

7. idx_6: ""wyoming,montana,idaho"" vs ""wyoming,montana,idaho""  
   - Exact match, correct.

8. idx_7: ""maine"" vs ""maine""  
   - Exact match, correct.

9. idx_8: ""oregon"" vs ""oregon""  
   - Exact match, correct.

10. idx_9: ""hawaii"" vs ""hawaiʻi""  
    - Same as idx_0, both refer to the same state, so correct.

11. idx_10: ""tennessee,northcarolina"" vs ""northcarolina,tennessee""  
    - The order is different, but entities are the same, so correct.

12. idx_11: ""california"" vs ""california""  
    - Exact match, correct.

13. idx_12: ""utah"" vs ""utah""  
    - Exact match, correct.

Since all responses point to the same entities as targets despite minor formatting (order or ʻokina), all get 1.

Final scoring JSON:

```json
{
    ""idx_0"": 1,
    ""idx_1"": 1,
    ""idx_2"": 1,
    ""idx_3"": 1,
    ""idx_4"": 1,
    ""idx_5"": 1,
    ""idx_6"": 1,
    ""idx_7"": 1,
    ""idx_8"": 1,
    ""idx_9"": 1,
    ""idx_10"": 1,
    ""idx_11"": 1,
    ""idx_12"": 1
}
```",utah,utah,0.0,"Let's analyze each idx step by step:

- idx_0: response = 'nan'; target = 'tomleatherman'  
  The response is 'nan', which presumably means ""no answer"" or ""not a number"" (no valid response). Target is a valid name. The criteria say semantics should be approximately the same or point to the same entity. Here, 'nan' does not correspond in any way to 'tomleatherman'. Score: 0

- idx_1: response = 'nan'; target = 'davidsmith'  
  Same reasoning as above. Score: 0

- idx_2: response = 'nan'; target = 'michellewheatley'  
  Same reasoning. Score: 0

- idx_3: response = 'nan'; target = 'lenapace'  
  Same reasoning. Score: 0

- idx_4: response = 'mariesauter'; target = 'gerardogonzalez'  
  Response is a different name than target. The criteria require approximate semantic equivalence or refer to the same entity. Names are different, so no match. Score: 0

- idx_5: response = 'nan'; target = 'jeffbradybaugh'  
  No match. Score: 0

- idx_6: response = 'nan'; target = 'cameron(cam)sholly'  
  No match. Score: 0

- idx_7: response = 'nan'; target = 'kevinschneider'  
  No match. Score: 0

- idx_8: response = 'nan'; target = 'kevinheatley'  
  No match. Score: 0

- idx_9: response = 'nan'; target = 'nataliegates'  
  No match. Score: 0

- idx_10: response = 'nan'; target = 'cassiuscash'  
  No match. Score: 0

- idx_11: response = 'nan'; target = 'leonelarguello'  
  No match. Score: 0

- idx_12: response = 'nan'; target = 'lenapace'  
  No match. Score: 0

Final Scores:

```json
{
  ""idx_0"": 0,
  ""idx_1"": 0,
  ""idx_2"": 0,
  ""idx_3"": 0,
  ""idx_4"": 0,
  ""idx_5"": 0,
  ""idx_6"": 0,
  ""idx_7"": 0,
  ""idx_8"": 0,
  ""idx_9"": 0,
  ""idx_10"": 0,
  ""idx_11"": 0,
  ""idx_12"": 0
}
```",jeffbradybaugh,nan
,,yellowstonenationalpark,Yellowstone National Park,0.0,"number not convertable, response: None, target: 623.27",623.27,NULL,0.0,"number not convertable, response: None, target: 4.5",4.5,NULL,0.0,"Let's analyze each idx item according to the criterion:

Criterion: It is sufficient if the semantics are approximately the same as the reference answer or if they point to the same entity. Just focus on the overall regulation if hunting is prohibited or allowed.

Note regarding the responses: All responses are ""nan"" (likely missing or not provided).

Targets: All standard answers indicate hunting is prohibited in the specified areas (variously stated as ""hunting prohibited,"" ""all hunting prohibited,"" or more detailed explanations indicating hunting is not allowed).

Given the responses are all ""nan"" (i.e., no response), this indicates no valid answer provided that corresponds to the target.

Thus, each item should receive 0 because no answer is given which can be evaluated as correct.

---

Final scoring:

```json
{
  ""idx_0"": 0,
  ""idx_1"": 0,
  ""idx_2"": 0,
  ""idx_3"": 0,
  ""idx_4"": 0,
  ""idx_5"": 0,
  ""idx_6"": 0,
  ""idx_7"": 0,
  ""idx_8"": 0,
  ""idx_9"": 0,
  ""idx_10"": 0,
  ""idx_11"": 0,
  ""idx_12"": 0
}
```","huntingisprohibitedwithintheboundariesofyellowstonenationalpark.thisregulationisinplacetoprotectthepark'swildlifeandecosystems.whilehuntingisnotallowedinsidethepark,itmaybepermittedinareasadjacenttothepark'sboundariesonnationalforestlandsorprivatelandwithpermission.",nan,0.0,"Let's analyze each idx comparing the response against the target considering the criterion:

- Criterion summary: Semantics being approximately the same or pointing to the same entity is sufficient. No need for word-for-word.

---

### Analysis

**idx_0**  
Response: 'nan'  
Target: '1arizonamemorialpl,honoluluhi96818'  
Response is 'nan' which seems to represent no answer, different from the target. No semantic similarity.  
Score: 0

**idx_1**  
Response: 'nan'  
Target: '1muirwoodsrd,millvalleyca94941'  
Same as above. Response is 'nan' (no answer)  
Score: 0

**idx_2**  
Response: 'nan'  
Target: '13000sd-244,keystonesd57751'  
Same as above. No match.  
Score: 0

**idx_3**  
Response: 'nan'  
Target: 'pobox907,moabut84532'  
No answer, no match.  
Score: 0

**idx_4**  
Response: 'p.o.box570,alamogordo,nm88311'  
Target: 'pobox1086,hollomanafbnm88330'  
Response and target both appear to be P.O. Box addresses, but boxes and cities differ ('p.o.box570, alamogordo, nm88311' vs. 'pobox1086, holloman afb nm 88330'). Different addresses/entities. Not equivalent.  
Score: 0

**idx_5**  
Response: 'nan'  
Target: 'zionnationalpark\n1zionparkblvd.\nspringdale,ut84767'  
No answer, target is Zion National Park address. No match.  
Score: 0

**idx_6**  
Response: 'nan'  
Target: 'pobox168,yellowstonenpwy82190'  
No answer.  
Score: 0

**idx_7**  
Response: 'nan'  
Target: 'pobox177,barharborme04609'  
No answer.  
Score: 0

**idx_8**  
Response: 'nan'  
Target: 'pobox7,craterlakeor97604'  
No answer.  
Score: 0

**idx_9**  
Response: 'nan'  
Target: 'pobox369,makawaohi96768'  
No answer.  
Score: 0

**idx_10**  
Response: 'nan'  
Target: '107parkheadquartersrd,gatlinburgtn37738'  
No answer.  
Score: 0

**idx_11**  
Response: 'nan'  
Target: '1111secondstreet\ncrescentcity,ca95531'  
No answer.  
Score: 0

**idx_12**  
Response: 'nan'  
Target: '2282resourceblvd,moabut84532'  
No answer.  
Score: 0

---

### Final scoring results in JSON:

```json
{
  ""idx_0"": 0,
  ""idx_1"": 0,
  ""idx_2"": 0,
  ""idx_3"": 0,
  ""idx_4"": 0,
  ""idx_5"": 0,
  ""idx_6"": 0,
  ""idx_7"": 0,
  ""idx_8"": 0,
  ""idx_9"": 0,
  ""idx_10"": 0,
  ""idx_11"": 0,
  ""idx_12"": 0
}
```","pobox168,yellowstonenpwy82190",nan,1.0,key_match,1.0,"Let's analyze each item according to the criterion: ""It is sufficient if the semantics are approximately the same as the reference answer or if they point to the same entity.""

1. idx_0: response ""hawaii"" vs target ""hawaiʻi""  
   - The response uses ""hawaii,"" the target uses ""hawaiʻi"" (with the ʻokina). Semantically, both point to the same entity, the state of Hawaii. So correct.

2. idx_1: ""california"" vs ""california""  
   - Exact match, correct.

3. idx_2: ""southdakota"" vs ""southdakota""  
   - Exact match, correct.

4. idx_3: ""utah"" vs ""utah""  
   - Exact match, correct.

5. idx_4: ""newmexico"" vs ""newmexico""  
   - Exact match, correct.

6. idx_5: ""utah"" vs ""utah""  
   - Exact match, correct.

7. idx_6: ""wyoming,montana,idaho"" vs ""wyoming,montana,idaho""  
   - Exact match, correct.

8. idx_7: ""maine"" vs ""maine""  
   - Exact match, correct.

9. idx_8: ""oregon"" vs ""oregon""  
   - Exact match, correct.

10. idx_9: ""hawaii"" vs ""hawaiʻi""  
    - Same as idx_0, both refer to the same state, so correct.

11. idx_10: ""tennessee,northcarolina"" vs ""northcarolina,tennessee""  
    - The order is different, but entities are the same, so correct.

12. idx_11: ""california"" vs ""california""  
    - Exact match, correct.

13. idx_12: ""utah"" vs ""utah""  
    - Exact match, correct.

Since all responses point to the same entities as targets despite minor formatting (order or ʻokina), all get 1.

Final scoring JSON:

```json
{
    ""idx_0"": 1,
    ""idx_1"": 1,
    ""idx_2"": 1,
    ""idx_3"": 1,
    ""idx_4"": 1,
    ""idx_5"": 1,
    ""idx_6"": 1,
    ""idx_7"": 1,
    ""idx_8"": 1,
    ""idx_9"": 1,
    ""idx_10"": 1,
    ""idx_11"": 1,
    ""idx_12"": 1
}
```","wyoming,montana,idaho","wyoming,montana,idaho",0.0,"Let's analyze each idx step by step:

- idx_0: response = 'nan'; target = 'tomleatherman'  
  The response is 'nan', which presumably means ""no answer"" or ""not a number"" (no valid response). Target is a valid name. The criteria say semantics should be approximately the same or point to the same entity. Here, 'nan' does not correspond in any way to 'tomleatherman'. Score: 0

- idx_1: response = 'nan'; target = 'davidsmith'  
  Same reasoning as above. Score: 0

- idx_2: response = 'nan'; target = 'michellewheatley'  
  Same reasoning. Score: 0

- idx_3: response = 'nan'; target = 'lenapace'  
  Same reasoning. Score: 0

- idx_4: response = 'mariesauter'; target = 'gerardogonzalez'  
  Response is a different name than target. The criteria require approximate semantic equivalence or refer to the same entity. Names are different, so no match. Score: 0

- idx_5: response = 'nan'; target = 'jeffbradybaugh'  
  No match. Score: 0

- idx_6: response = 'nan'; target = 'cameron(cam)sholly'  
  No match. Score: 0

- idx_7: response = 'nan'; target = 'kevinschneider'  
  No match. Score: 0

- idx_8: response = 'nan'; target = 'kevinheatley'  
  No match. Score: 0

- idx_9: response = 'nan'; target = 'nataliegates'  
  No match. Score: 0

- idx_10: response = 'nan'; target = 'cassiuscash'  
  No match. Score: 0

- idx_11: response = 'nan'; target = 'leonelarguello'  
  No match. Score: 0

- idx_12: response = 'nan'; target = 'lenapace'  
  No match. Score: 0

Final Scores:

```json
{
  ""idx_0"": 0,
  ""idx_1"": 0,
  ""idx_2"": 0,
  ""idx_3"": 0,
  ""idx_4"": 0,
  ""idx_5"": 0,
  ""idx_6"": 0,
  ""idx_7"": 0,
  ""idx_8"": 0,
  ""idx_9"": 0,
  ""idx_10"": 0,
  ""idx_11"": 0,
  ""idx_12"": 0
}
```",cameron(cam)sholly,nan
,,acadianationalpark,Acadia National Park,0.0,"number not convertable, response: None, target: 475.18",475.18,NULL,0.0,"number not convertable, response: None, target: 3.9",3.9,NULL,0.0,"Let's analyze each idx item according to the criterion:

Criterion: It is sufficient if the semantics are approximately the same as the reference answer or if they point to the same entity. Just focus on the overall regulation if hunting is prohibited or allowed.

Note regarding the responses: All responses are ""nan"" (likely missing or not provided).

Targets: All standard answers indicate hunting is prohibited in the specified areas (variously stated as ""hunting prohibited,"" ""all hunting prohibited,"" or more detailed explanations indicating hunting is not allowed).

Given the responses are all ""nan"" (i.e., no response), this indicates no valid answer provided that corresponds to the target.

Thus, each item should receive 0 because no answer is given which can be evaluated as correct.

---

Final scoring:

```json
{
  ""idx_0"": 0,
  ""idx_1"": 0,
  ""idx_2"": 0,
  ""idx_3"": 0,
  ""idx_4"": 0,
  ""idx_5"": 0,
  ""idx_6"": 0,
  ""idx_7"": 0,
  ""idx_8"": 0,
  ""idx_9"": 0,
  ""idx_10"": 0,
  ""idx_11"": 0,
  ""idx_12"": 0
}
```","huntingandtrappingareprohibitedwithinacadianationalpark.possessingfirearmsisalsoprohibited,withlimitedexceptionsforthosewithwrittenpermissionfromthesuperintendent.violationscanresultinfines,imprisonment,andtheforfeitureofanyhuntingequipment.",nan,0.0,"Let's analyze each idx comparing the response against the target considering the criterion:

- Criterion summary: Semantics being approximately the same or pointing to the same entity is sufficient. No need for word-for-word.

---

### Analysis

**idx_0**  
Response: 'nan'  
Target: '1arizonamemorialpl,honoluluhi96818'  
Response is 'nan' which seems to represent no answer, different from the target. No semantic similarity.  
Score: 0

**idx_1**  
Response: 'nan'  
Target: '1muirwoodsrd,millvalleyca94941'  
Same as above. Response is 'nan' (no answer)  
Score: 0

**idx_2**  
Response: 'nan'  
Target: '13000sd-244,keystonesd57751'  
Same as above. No match.  
Score: 0

**idx_3**  
Response: 'nan'  
Target: 'pobox907,moabut84532'  
No answer, no match.  
Score: 0

**idx_4**  
Response: 'p.o.box570,alamogordo,nm88311'  
Target: 'pobox1086,hollomanafbnm88330'  
Response and target both appear to be P.O. Box addresses, but boxes and cities differ ('p.o.box570, alamogordo, nm88311' vs. 'pobox1086, holloman afb nm 88330'). Different addresses/entities. Not equivalent.  
Score: 0

**idx_5**  
Response: 'nan'  
Target: 'zionnationalpark\n1zionparkblvd.\nspringdale,ut84767'  
No answer, target is Zion National Park address. No match.  
Score: 0

**idx_6**  
Response: 'nan'  
Target: 'pobox168,yellowstonenpwy82190'  
No answer.  
Score: 0

**idx_7**  
Response: 'nan'  
Target: 'pobox177,barharborme04609'  
No answer.  
Score: 0

**idx_8**  
Response: 'nan'  
Target: 'pobox7,craterlakeor97604'  
No answer.  
Score: 0

**idx_9**  
Response: 'nan'  
Target: 'pobox369,makawaohi96768'  
No answer.  
Score: 0

**idx_10**  
Response: 'nan'  
Target: '107parkheadquartersrd,gatlinburgtn37738'  
No answer.  
Score: 0

**idx_11**  
Response: 'nan'  
Target: '1111secondstreet\ncrescentcity,ca95531'  
No answer.  
Score: 0

**idx_12**  
Response: 'nan'  
Target: '2282resourceblvd,moabut84532'  
No answer.  
Score: 0

---

### Final scoring results in JSON:

```json
{
  ""idx_0"": 0,
  ""idx_1"": 0,
  ""idx_2"": 0,
  ""idx_3"": 0,
  ""idx_4"": 0,
  ""idx_5"": 0,
  ""idx_6"": 0,
  ""idx_7"": 0,
  ""idx_8"": 0,
  ""idx_9"": 0,
  ""idx_10"": 0,
  ""idx_11"": 0,
  ""idx_12"": 0
}
```","pobox177,barharborme04609",nan,1.0,key_match,1.0,"Let's analyze each item according to the criterion: ""It is sufficient if the semantics are approximately the same as the reference answer or if they point to the same entity.""

1. idx_0: response ""hawaii"" vs target ""hawaiʻi""  
   - The response uses ""hawaii,"" the target uses ""hawaiʻi"" (with the ʻokina). Semantically, both point to the same entity, the state of Hawaii. So correct.

2. idx_1: ""california"" vs ""california""  
   - Exact match, correct.

3. idx_2: ""southdakota"" vs ""southdakota""  
   - Exact match, correct.

4. idx_3: ""utah"" vs ""utah""  
   - Exact match, correct.

5. idx_4: ""newmexico"" vs ""newmexico""  
   - Exact match, correct.

6. idx_5: ""utah"" vs ""utah""  
   - Exact match, correct.

7. idx_6: ""wyoming,montana,idaho"" vs ""wyoming,montana,idaho""  
   - Exact match, correct.

8. idx_7: ""maine"" vs ""maine""  
   - Exact match, correct.

9. idx_8: ""oregon"" vs ""oregon""  
   - Exact match, correct.

10. idx_9: ""hawaii"" vs ""hawaiʻi""  
    - Same as idx_0, both refer to the same state, so correct.

11. idx_10: ""tennessee,northcarolina"" vs ""northcarolina,tennessee""  
    - The order is different, but entities are the same, so correct.

12. idx_11: ""california"" vs ""california""  
    - Exact match, correct.

13. idx_12: ""utah"" vs ""utah""  
    - Exact match, correct.

Since all responses point to the same entities as targets despite minor formatting (order or ʻokina), all get 1.

Final scoring JSON:

```json
{
    ""idx_0"": 1,
    ""idx_1"": 1,
    ""idx_2"": 1,
    ""idx_3"": 1,
    ""idx_4"": 1,
    ""idx_5"": 1,
    ""idx_6"": 1,
    ""idx_7"": 1,
    ""idx_8"": 1,
    ""idx_9"": 1,
    ""idx_10"": 1,
    ""idx_11"": 1,
    ""idx_12"": 1
}
```",maine,maine,0.0,"Let's analyze each idx step by step:

- idx_0: response = 'nan'; target = 'tomleatherman'  
  The response is 'nan', which presumably means ""no answer"" or ""not a number"" (no valid response). Target is a valid name. The criteria say semantics should be approximately the same or point to the same entity. Here, 'nan' does not correspond in any way to 'tomleatherman'. Score: 0

- idx_1: response = 'nan'; target = 'davidsmith'  
  Same reasoning as above. Score: 0

- idx_2: response = 'nan'; target = 'michellewheatley'  
  Same reasoning. Score: 0

- idx_3: response = 'nan'; target = 'lenapace'  
  Same reasoning. Score: 0

- idx_4: response = 'mariesauter'; target = 'gerardogonzalez'  
  Response is a different name than target. The criteria require approximate semantic equivalence or refer to the same entity. Names are different, so no match. Score: 0

- idx_5: response = 'nan'; target = 'jeffbradybaugh'  
  No match. Score: 0

- idx_6: response = 'nan'; target = 'cameron(cam)sholly'  
  No match. Score: 0

- idx_7: response = 'nan'; target = 'kevinschneider'  
  No match. Score: 0

- idx_8: response = 'nan'; target = 'kevinheatley'  
  No match. Score: 0

- idx_9: response = 'nan'; target = 'nataliegates'  
  No match. Score: 0

- idx_10: response = 'nan'; target = 'cassiuscash'  
  No match. Score: 0

- idx_11: response = 'nan'; target = 'leonelarguello'  
  No match. Score: 0

- idx_12: response = 'nan'; target = 'lenapace'  
  No match. Score: 0

Final Scores:

```json
{
  ""idx_0"": 0,
  ""idx_1"": 0,
  ""idx_2"": 0,
  ""idx_3"": 0,
  ""idx_4"": 0,
  ""idx_5"": 0,
  ""idx_6"": 0,
  ""idx_7"": 0,
  ""idx_8"": 0,
  ""idx_9"": 0,
  ""idx_10"": 0,
  ""idx_11"": 0,
  ""idx_12"": 0
}
```",kevinschneider,nan
,,craterlakenationalpark,Crater Lake National Park,0.0,"number not convertable, response: None, target: 55.24",55.24,NULL,0.0,"number not convertable, response: None, target: 0.56",0.56,NULL,0.0,"Let's analyze each idx item according to the criterion:

Criterion: It is sufficient if the semantics are approximately the same as the reference answer or if they point to the same entity. Just focus on the overall regulation if hunting is prohibited or allowed.

Note regarding the responses: All responses are ""nan"" (likely missing or not provided).

Targets: All standard answers indicate hunting is prohibited in the specified areas (variously stated as ""hunting prohibited,"" ""all hunting prohibited,"" or more detailed explanations indicating hunting is not allowed).

Given the responses are all ""nan"" (i.e., no response), this indicates no valid answer provided that corresponds to the target.

Thus, each item should receive 0 because no answer is given which can be evaluated as correct.

---

Final scoring:

```json
{
  ""idx_0"": 0,
  ""idx_1"": 0,
  ""idx_2"": 0,
  ""idx_3"": 0,
  ""idx_4"": 0,
  ""idx_5"": 0,
  ""idx_6"": 0,
  ""idx_7"": 0,
  ""idx_8"": 0,
  ""idx_9"": 0,
  ""idx_10"": 0,
  ""idx_11"": 0,
  ""idx_12"": 0
}
```","huntingisprohibitedwithintheboundariesofcraterlakenationalpark.thismeansthatnohunting,killing,orcapturingofanywildanimalsisallowedwithinthepark'sboundaries.",nan,0.0,"Let's analyze each idx comparing the response against the target considering the criterion:

- Criterion summary: Semantics being approximately the same or pointing to the same entity is sufficient. No need for word-for-word.

---

### Analysis

**idx_0**  
Response: 'nan'  
Target: '1arizonamemorialpl,honoluluhi96818'  
Response is 'nan' which seems to represent no answer, different from the target. No semantic similarity.  
Score: 0

**idx_1**  
Response: 'nan'  
Target: '1muirwoodsrd,millvalleyca94941'  
Same as above. Response is 'nan' (no answer)  
Score: 0

**idx_2**  
Response: 'nan'  
Target: '13000sd-244,keystonesd57751'  
Same as above. No match.  
Score: 0

**idx_3**  
Response: 'nan'  
Target: 'pobox907,moabut84532'  
No answer, no match.  
Score: 0

**idx_4**  
Response: 'p.o.box570,alamogordo,nm88311'  
Target: 'pobox1086,hollomanafbnm88330'  
Response and target both appear to be P.O. Box addresses, but boxes and cities differ ('p.o.box570, alamogordo, nm88311' vs. 'pobox1086, holloman afb nm 88330'). Different addresses/entities. Not equivalent.  
Score: 0

**idx_5**  
Response: 'nan'  
Target: 'zionnationalpark\n1zionparkblvd.\nspringdale,ut84767'  
No answer, target is Zion National Park address. No match.  
Score: 0

**idx_6**  
Response: 'nan'  
Target: 'pobox168,yellowstonenpwy82190'  
No answer.  
Score: 0

**idx_7**  
Response: 'nan'  
Target: 'pobox177,barharborme04609'  
No answer.  
Score: 0

**idx_8**  
Response: 'nan'  
Target: 'pobox7,craterlakeor97604'  
No answer.  
Score: 0

**idx_9**  
Response: 'nan'  
Target: 'pobox369,makawaohi96768'  
No answer.  
Score: 0

**idx_10**  
Response: 'nan'  
Target: '107parkheadquartersrd,gatlinburgtn37738'  
No answer.  
Score: 0

**idx_11**  
Response: 'nan'  
Target: '1111secondstreet\ncrescentcity,ca95531'  
No answer.  
Score: 0

**idx_12**  
Response: 'nan'  
Target: '2282resourceblvd,moabut84532'  
No answer.  
Score: 0

---

### Final scoring results in JSON:

```json
{
  ""idx_0"": 0,
  ""idx_1"": 0,
  ""idx_2"": 0,
  ""idx_3"": 0,
  ""idx_4"": 0,
  ""idx_5"": 0,
  ""idx_6"": 0,
  ""idx_7"": 0,
  ""idx_8"": 0,
  ""idx_9"": 0,
  ""idx_10"": 0,
  ""idx_11"": 0,
  ""idx_12"": 0
}
```","pobox7,craterlakeor97604",nan,1.0,key_match,1.0,"Let's analyze each item according to the criterion: ""It is sufficient if the semantics are approximately the same as the reference answer or if they point to the same entity.""

1. idx_0: response ""hawaii"" vs target ""hawaiʻi""  
   - The response uses ""hawaii,"" the target uses ""hawaiʻi"" (with the ʻokina). Semantically, both point to the same entity, the state of Hawaii. So correct.

2. idx_1: ""california"" vs ""california""  
   - Exact match, correct.

3. idx_2: ""southdakota"" vs ""southdakota""  
   - Exact match, correct.

4. idx_3: ""utah"" vs ""utah""  
   - Exact match, correct.

5. idx_4: ""newmexico"" vs ""newmexico""  
   - Exact match, correct.

6. idx_5: ""utah"" vs ""utah""  
   - Exact match, correct.

7. idx_6: ""wyoming,montana,idaho"" vs ""wyoming,montana,idaho""  
   - Exact match, correct.

8. idx_7: ""maine"" vs ""maine""  
   - Exact match, correct.

9. idx_8: ""oregon"" vs ""oregon""  
   - Exact match, correct.

10. idx_9: ""hawaii"" vs ""hawaiʻi""  
    - Same as idx_0, both refer to the same state, so correct.

11. idx_10: ""tennessee,northcarolina"" vs ""northcarolina,tennessee""  
    - The order is different, but entities are the same, so correct.

12. idx_11: ""california"" vs ""california""  
    - Exact match, correct.

13. idx_12: ""utah"" vs ""utah""  
    - Exact match, correct.

Since all responses point to the same entities as targets despite minor formatting (order or ʻokina), all get 1.

Final scoring JSON:

```json
{
    ""idx_0"": 1,
    ""idx_1"": 1,
    ""idx_2"": 1,
    ""idx_3"": 1,
    ""idx_4"": 1,
    ""idx_5"": 1,
    ""idx_6"": 1,
    ""idx_7"": 1,
    ""idx_8"": 1,
    ""idx_9"": 1,
    ""idx_10"": 1,
    ""idx_11"": 1,
    ""idx_12"": 1
}
```",oregon,oregon,0.0,"Let's analyze each idx step by step:

- idx_0: response = 'nan'; target = 'tomleatherman'  
  The response is 'nan', which presumably means ""no answer"" or ""not a number"" (no valid response). Target is a valid name. The criteria say semantics should be approximately the same or point to the same entity. Here, 'nan' does not correspond in any way to 'tomleatherman'. Score: 0

- idx_1: response = 'nan'; target = 'davidsmith'  
  Same reasoning as above. Score: 0

- idx_2: response = 'nan'; target = 'michellewheatley'  
  Same reasoning. Score: 0

- idx_3: response = 'nan'; target = 'lenapace'  
  Same reasoning. Score: 0

- idx_4: response = 'mariesauter'; target = 'gerardogonzalez'  
  Response is a different name than target. The criteria require approximate semantic equivalence or refer to the same entity. Names are different, so no match. Score: 0

- idx_5: response = 'nan'; target = 'jeffbradybaugh'  
  No match. Score: 0

- idx_6: response = 'nan'; target = 'cameron(cam)sholly'  
  No match. Score: 0

- idx_7: response = 'nan'; target = 'kevinschneider'  
  No match. Score: 0

- idx_8: response = 'nan'; target = 'kevinheatley'  
  No match. Score: 0

- idx_9: response = 'nan'; target = 'nataliegates'  
  No match. Score: 0

- idx_10: response = 'nan'; target = 'cassiuscash'  
  No match. Score: 0

- idx_11: response = 'nan'; target = 'leonelarguello'  
  No match. Score: 0

- idx_12: response = 'nan'; target = 'lenapace'  
  No match. Score: 0

Final Scores:

```json
{
  ""idx_0"": 0,
  ""idx_1"": 0,
  ""idx_2"": 0,
  ""idx_3"": 0,
  ""idx_4"": 0,
  ""idx_5"": 0,
  ""idx_6"": 0,
  ""idx_7"": 0,
  ""idx_8"": 0,
  ""idx_9"": 0,
  ""idx_10"": 0,
  ""idx_11"": 0,
  ""idx_12"": 0
}
```",kevinheatley,nan
,,haleakalanationalpark,Haleakala National Park,0.0,"number not convertable, response: None, target: 57.54",57.54,NULL,0.0,"number not convertable, response: None, target: 0.791",0.791,NULL,0.0,"Let's analyze each idx item according to the criterion:

Criterion: It is sufficient if the semantics are approximately the same as the reference answer or if they point to the same entity. Just focus on the overall regulation if hunting is prohibited or allowed.

Note regarding the responses: All responses are ""nan"" (likely missing or not provided).

Targets: All standard answers indicate hunting is prohibited in the specified areas (variously stated as ""hunting prohibited,"" ""all hunting prohibited,"" or more detailed explanations indicating hunting is not allowed).

Given the responses are all ""nan"" (i.e., no response), this indicates no valid answer provided that corresponds to the target.

Thus, each item should receive 0 because no answer is given which can be evaluated as correct.

---

Final scoring:

```json
{
  ""idx_0"": 0,
  ""idx_1"": 0,
  ""idx_2"": 0,
  ""idx_3"": 0,
  ""idx_4"": 0,
  ""idx_5"": 0,
  ""idx_6"": 0,
  ""idx_7"": 0,
  ""idx_8"": 0,
  ""idx_9"": 0,
  ""idx_10"": 0,
  ""idx_11"": 0,
  ""idx_12"": 0
}
```",huntingisnotpermittedwithinhaleakalānationalpark.,nan,0.0,"Let's analyze each idx comparing the response against the target considering the criterion:

- Criterion summary: Semantics being approximately the same or pointing to the same entity is sufficient. No need for word-for-word.

---

### Analysis

**idx_0**  
Response: 'nan'  
Target: '1arizonamemorialpl,honoluluhi96818'  
Response is 'nan' which seems to represent no answer, different from the target. No semantic similarity.  
Score: 0

**idx_1**  
Response: 'nan'  
Target: '1muirwoodsrd,millvalleyca94941'  
Same as above. Response is 'nan' (no answer)  
Score: 0

**idx_2**  
Response: 'nan'  
Target: '13000sd-244,keystonesd57751'  
Same as above. No match.  
Score: 0

**idx_3**  
Response: 'nan'  
Target: 'pobox907,moabut84532'  
No answer, no match.  
Score: 0

**idx_4**  
Response: 'p.o.box570,alamogordo,nm88311'  
Target: 'pobox1086,hollomanafbnm88330'  
Response and target both appear to be P.O. Box addresses, but boxes and cities differ ('p.o.box570, alamogordo, nm88311' vs. 'pobox1086, holloman afb nm 88330'). Different addresses/entities. Not equivalent.  
Score: 0

**idx_5**  
Response: 'nan'  
Target: 'zionnationalpark\n1zionparkblvd.\nspringdale,ut84767'  
No answer, target is Zion National Park address. No match.  
Score: 0

**idx_6**  
Response: 'nan'  
Target: 'pobox168,yellowstonenpwy82190'  
No answer.  
Score: 0

**idx_7**  
Response: 'nan'  
Target: 'pobox177,barharborme04609'  
No answer.  
Score: 0

**idx_8**  
Response: 'nan'  
Target: 'pobox7,craterlakeor97604'  
No answer.  
Score: 0

**idx_9**  
Response: 'nan'  
Target: 'pobox369,makawaohi96768'  
No answer.  
Score: 0

**idx_10**  
Response: 'nan'  
Target: '107parkheadquartersrd,gatlinburgtn37738'  
No answer.  
Score: 0

**idx_11**  
Response: 'nan'  
Target: '1111secondstreet\ncrescentcity,ca95531'  
No answer.  
Score: 0

**idx_12**  
Response: 'nan'  
Target: '2282resourceblvd,moabut84532'  
No answer.  
Score: 0

---

### Final scoring results in JSON:

```json
{
  ""idx_0"": 0,
  ""idx_1"": 0,
  ""idx_2"": 0,
  ""idx_3"": 0,
  ""idx_4"": 0,
  ""idx_5"": 0,
  ""idx_6"": 0,
  ""idx_7"": 0,
  ""idx_8"": 0,
  ""idx_9"": 0,
  ""idx_10"": 0,
  ""idx_11"": 0,
  ""idx_12"": 0
}
```","pobox369,makawaohi96768",nan,1.0,key_match,1.0,"Let's analyze each item according to the criterion: ""It is sufficient if the semantics are approximately the same as the reference answer or if they point to the same entity.""

1. idx_0: response ""hawaii"" vs target ""hawaiʻi""  
   - The response uses ""hawaii,"" the target uses ""hawaiʻi"" (with the ʻokina). Semantically, both point to the same entity, the state of Hawaii. So correct.

2. idx_1: ""california"" vs ""california""  
   - Exact match, correct.

3. idx_2: ""southdakota"" vs ""southdakota""  
   - Exact match, correct.

4. idx_3: ""utah"" vs ""utah""  
   - Exact match, correct.

5. idx_4: ""newmexico"" vs ""newmexico""  
   - Exact match, correct.

6. idx_5: ""utah"" vs ""utah""  
   - Exact match, correct.

7. idx_6: ""wyoming,montana,idaho"" vs ""wyoming,montana,idaho""  
   - Exact match, correct.

8. idx_7: ""maine"" vs ""maine""  
   - Exact match, correct.

9. idx_8: ""oregon"" vs ""oregon""  
   - Exact match, correct.

10. idx_9: ""hawaii"" vs ""hawaiʻi""  
    - Same as idx_0, both refer to the same state, so correct.

11. idx_10: ""tennessee,northcarolina"" vs ""northcarolina,tennessee""  
    - The order is different, but entities are the same, so correct.

12. idx_11: ""california"" vs ""california""  
    - Exact match, correct.

13. idx_12: ""utah"" vs ""utah""  
    - Exact match, correct.

Since all responses point to the same entities as targets despite minor formatting (order or ʻokina), all get 1.

Final scoring JSON:

```json
{
    ""idx_0"": 1,
    ""idx_1"": 1,
    ""idx_2"": 1,
    ""idx_3"": 1,
    ""idx_4"": 1,
    ""idx_5"": 1,
    ""idx_6"": 1,
    ""idx_7"": 1,
    ""idx_8"": 1,
    ""idx_9"": 1,
    ""idx_10"": 1,
    ""idx_11"": 1,
    ""idx_12"": 1
}
```",hawaiʻi,hawaii,0.0,"Let's analyze each idx step by step:

- idx_0: response = 'nan'; target = 'tomleatherman'  
  The response is 'nan', which presumably means ""no answer"" or ""not a number"" (no valid response). Target is a valid name. The criteria say semantics should be approximately the same or point to the same entity. Here, 'nan' does not correspond in any way to 'tomleatherman'. Score: 0

- idx_1: response = 'nan'; target = 'davidsmith'  
  Same reasoning as above. Score: 0

- idx_2: response = 'nan'; target = 'michellewheatley'  
  Same reasoning. Score: 0

- idx_3: response = 'nan'; target = 'lenapace'  
  Same reasoning. Score: 0

- idx_4: response = 'mariesauter'; target = 'gerardogonzalez'  
  Response is a different name than target. The criteria require approximate semantic equivalence or refer to the same entity. Names are different, so no match. Score: 0

- idx_5: response = 'nan'; target = 'jeffbradybaugh'  
  No match. Score: 0

- idx_6: response = 'nan'; target = 'cameron(cam)sholly'  
  No match. Score: 0

- idx_7: response = 'nan'; target = 'kevinschneider'  
  No match. Score: 0

- idx_8: response = 'nan'; target = 'kevinheatley'  
  No match. Score: 0

- idx_9: response = 'nan'; target = 'nataliegates'  
  No match. Score: 0

- idx_10: response = 'nan'; target = 'cassiuscash'  
  No match. Score: 0

- idx_11: response = 'nan'; target = 'leonelarguello'  
  No match. Score: 0

- idx_12: response = 'nan'; target = 'lenapace'  
  No match. Score: 0

Final Scores:

```json
{
  ""idx_0"": 0,
  ""idx_1"": 0,
  ""idx_2"": 0,
  ""idx_3"": 0,
  ""idx_4"": 0,
  ""idx_5"": 0,
  ""idx_6"": 0,
  ""idx_7"": 0,
  ""idx_8"": 0,
  ""idx_9"": 0,
  ""idx_10"": 0,
  ""idx_11"": 0,
  ""idx_12"": 0
}
```",nataliegates,nan
,,greatsmokeymountainsnationalpark,Great Smoky Mountains National Park,0.0,"number not convertable, response: None, target: 2198.54",2198.54,NULL,0.0,"number not convertable, response: None, target: 13.3",13.3,NULL,0.0,"Let's analyze each idx item according to the criterion:

Criterion: It is sufficient if the semantics are approximately the same as the reference answer or if they point to the same entity. Just focus on the overall regulation if hunting is prohibited or allowed.

Note regarding the responses: All responses are ""nan"" (likely missing or not provided).

Targets: All standard answers indicate hunting is prohibited in the specified areas (variously stated as ""hunting prohibited,"" ""all hunting prohibited,"" or more detailed explanations indicating hunting is not allowed).

Given the responses are all ""nan"" (i.e., no response), this indicates no valid answer provided that corresponds to the target.

Thus, each item should receive 0 because no answer is given which can be evaluated as correct.

---

Final scoring:

```json
{
  ""idx_0"": 0,
  ""idx_1"": 0,
  ""idx_2"": 0,
  ""idx_3"": 0,
  ""idx_4"": 0,
  ""idx_5"": 0,
  ""idx_6"": 0,
  ""idx_7"": 0,
  ""idx_8"": 0,
  ""idx_9"": 0,
  ""idx_10"": 0,
  ""idx_11"": 0,
  ""idx_12"": 0
}
```","huntingisprohibitedwithintheboundariesofgreatsmokymountainsnationalpark.whilehuntingisnotallowedinsidethepark,therearenearbywildlifemanagementareaswherehuntingispermitted.theseareasoftenhavespecificregulationsregardingseasons,game,andhuntingmethods.",nan,0.0,"Let's analyze each idx comparing the response against the target considering the criterion:

- Criterion summary: Semantics being approximately the same or pointing to the same entity is sufficient. No need for word-for-word.

---

### Analysis

**idx_0**  
Response: 'nan'  
Target: '1arizonamemorialpl,honoluluhi96818'  
Response is 'nan' which seems to represent no answer, different from the target. No semantic similarity.  
Score: 0

**idx_1**  
Response: 'nan'  
Target: '1muirwoodsrd,millvalleyca94941'  
Same as above. Response is 'nan' (no answer)  
Score: 0

**idx_2**  
Response: 'nan'  
Target: '13000sd-244,keystonesd57751'  
Same as above. No match.  
Score: 0

**idx_3**  
Response: 'nan'  
Target: 'pobox907,moabut84532'  
No answer, no match.  
Score: 0

**idx_4**  
Response: 'p.o.box570,alamogordo,nm88311'  
Target: 'pobox1086,hollomanafbnm88330'  
Response and target both appear to be P.O. Box addresses, but boxes and cities differ ('p.o.box570, alamogordo, nm88311' vs. 'pobox1086, holloman afb nm 88330'). Different addresses/entities. Not equivalent.  
Score: 0

**idx_5**  
Response: 'nan'  
Target: 'zionnationalpark\n1zionparkblvd.\nspringdale,ut84767'  
No answer, target is Zion National Park address. No match.  
Score: 0

**idx_6**  
Response: 'nan'  
Target: 'pobox168,yellowstonenpwy82190'  
No answer.  
Score: 0

**idx_7**  
Response: 'nan'  
Target: 'pobox177,barharborme04609'  
No answer.  
Score: 0

**idx_8**  
Response: 'nan'  
Target: 'pobox7,craterlakeor97604'  
No answer.  
Score: 0

**idx_9**  
Response: 'nan'  
Target: 'pobox369,makawaohi96768'  
No answer.  
Score: 0

**idx_10**  
Response: 'nan'  
Target: '107parkheadquartersrd,gatlinburgtn37738'  
No answer.  
Score: 0

**idx_11**  
Response: 'nan'  
Target: '1111secondstreet\ncrescentcity,ca95531'  
No answer.  
Score: 0

**idx_12**  
Response: 'nan'  
Target: '2282resourceblvd,moabut84532'  
No answer.  
Score: 0

---

### Final scoring results in JSON:

```json
{
  ""idx_0"": 0,
  ""idx_1"": 0,
  ""idx_2"": 0,
  ""idx_3"": 0,
  ""idx_4"": 0,
  ""idx_5"": 0,
  ""idx_6"": 0,
  ""idx_7"": 0,
  ""idx_8"": 0,
  ""idx_9"": 0,
  ""idx_10"": 0,
  ""idx_11"": 0,
  ""idx_12"": 0
}
```","107parkheadquartersrd,gatlinburgtn37738",nan,1.0,key_match,1.0,"Let's analyze each item according to the criterion: ""It is sufficient if the semantics are approximately the same as the reference answer or if they point to the same entity.""

1. idx_0: response ""hawaii"" vs target ""hawaiʻi""  
   - The response uses ""hawaii,"" the target uses ""hawaiʻi"" (with the ʻokina). Semantically, both point to the same entity, the state of Hawaii. So correct.

2. idx_1: ""california"" vs ""california""  
   - Exact match, correct.

3. idx_2: ""southdakota"" vs ""southdakota""  
   - Exact match, correct.

4. idx_3: ""utah"" vs ""utah""  
   - Exact match, correct.

5. idx_4: ""newmexico"" vs ""newmexico""  
   - Exact match, correct.

6. idx_5: ""utah"" vs ""utah""  
   - Exact match, correct.

7. idx_6: ""wyoming,montana,idaho"" vs ""wyoming,montana,idaho""  
   - Exact match, correct.

8. idx_7: ""maine"" vs ""maine""  
   - Exact match, correct.

9. idx_8: ""oregon"" vs ""oregon""  
   - Exact match, correct.

10. idx_9: ""hawaii"" vs ""hawaiʻi""  
    - Same as idx_0, both refer to the same state, so correct.

11. idx_10: ""tennessee,northcarolina"" vs ""northcarolina,tennessee""  
    - The order is different, but entities are the same, so correct.

12. idx_11: ""california"" vs ""california""  
    - Exact match, correct.

13. idx_12: ""utah"" vs ""utah""  
    - Exact match, correct.

Since all responses point to the same entities as targets despite minor formatting (order or ʻokina), all get 1.

Final scoring JSON:

```json
{
    ""idx_0"": 1,
    ""idx_1"": 1,
    ""idx_2"": 1,
    ""idx_3"": 1,
    ""idx_4"": 1,
    ""idx_5"": 1,
    ""idx_6"": 1,
    ""idx_7"": 1,
    ""idx_8"": 1,
    ""idx_9"": 1,
    ""idx_10"": 1,
    ""idx_11"": 1,
    ""idx_12"": 1
}
```","northcarolina,tennessee","tennessee,northcarolina",0.0,"Let's analyze each idx step by step:

- idx_0: response = 'nan'; target = 'tomleatherman'  
  The response is 'nan', which presumably means ""no answer"" or ""not a number"" (no valid response). Target is a valid name. The criteria say semantics should be approximately the same or point to the same entity. Here, 'nan' does not correspond in any way to 'tomleatherman'. Score: 0

- idx_1: response = 'nan'; target = 'davidsmith'  
  Same reasoning as above. Score: 0

- idx_2: response = 'nan'; target = 'michellewheatley'  
  Same reasoning. Score: 0

- idx_3: response = 'nan'; target = 'lenapace'  
  Same reasoning. Score: 0

- idx_4: response = 'mariesauter'; target = 'gerardogonzalez'  
  Response is a different name than target. The criteria require approximate semantic equivalence or refer to the same entity. Names are different, so no match. Score: 0

- idx_5: response = 'nan'; target = 'jeffbradybaugh'  
  No match. Score: 0

- idx_6: response = 'nan'; target = 'cameron(cam)sholly'  
  No match. Score: 0

- idx_7: response = 'nan'; target = 'kevinschneider'  
  No match. Score: 0

- idx_8: response = 'nan'; target = 'kevinheatley'  
  No match. Score: 0

- idx_9: response = 'nan'; target = 'nataliegates'  
  No match. Score: 0

- idx_10: response = 'nan'; target = 'cassiuscash'  
  No match. Score: 0

- idx_11: response = 'nan'; target = 'leonelarguello'  
  No match. Score: 0

- idx_12: response = 'nan'; target = 'lenapace'  
  No match. Score: 0

Final Scores:

```json
{
  ""idx_0"": 0,
  ""idx_1"": 0,
  ""idx_2"": 0,
  ""idx_3"": 0,
  ""idx_4"": 0,
  ""idx_5"": 0,
  ""idx_6"": 0,
  ""idx_7"": 0,
  ""idx_8"": 0,
  ""idx_9"": 0,
  ""idx_10"": 0,
  ""idx_11"": 0,
  ""idx_12"": 0
}
```",cassiuscash,nan
,,redwoodnationalandstateparks,Redwood National and State Parks,0.0,"number not convertable, response: None, target: 29.65",29.65,NULL,0.0,"number not convertable, response: None, target: 0.409",0.409,NULL,0.0,"Let's analyze each idx item according to the criterion:

Criterion: It is sufficient if the semantics are approximately the same as the reference answer or if they point to the same entity. Just focus on the overall regulation if hunting is prohibited or allowed.

Note regarding the responses: All responses are ""nan"" (likely missing or not provided).

Targets: All standard answers indicate hunting is prohibited in the specified areas (variously stated as ""hunting prohibited,"" ""all hunting prohibited,"" or more detailed explanations indicating hunting is not allowed).

Given the responses are all ""nan"" (i.e., no response), this indicates no valid answer provided that corresponds to the target.

Thus, each item should receive 0 because no answer is given which can be evaluated as correct.

---

Final scoring:

```json
{
  ""idx_0"": 0,
  ""idx_1"": 0,
  ""idx_2"": 0,
  ""idx_3"": 0,
  ""idx_4"": 0,
  ""idx_5"": 0,
  ""idx_6"": 0,
  ""idx_7"": 0,
  ""idx_8"": 0,
  ""idx_9"": 0,
  ""idx_10"": 0,
  ""idx_11"": 0,
  ""idx_12"": 0
}
```","huntingisprohibitedwithintheboundariesofredwoodnationalandstateparks.thisisconsistentwiththegeneralregulationsofcaliforniastateparksandnationalparks,whichprioritizetheprotectionofnaturalscenery,plants,andanimallife.loadedfirearmsandhuntingarenotallowed.",nan,0.0,"Let's analyze each idx comparing the response against the target considering the criterion:

- Criterion summary: Semantics being approximately the same or pointing to the same entity is sufficient. No need for word-for-word.

---

### Analysis

**idx_0**  
Response: 'nan'  
Target: '1arizonamemorialpl,honoluluhi96818'  
Response is 'nan' which seems to represent no answer, different from the target. No semantic similarity.  
Score: 0

**idx_1**  
Response: 'nan'  
Target: '1muirwoodsrd,millvalleyca94941'  
Same as above. Response is 'nan' (no answer)  
Score: 0

**idx_2**  
Response: 'nan'  
Target: '13000sd-244,keystonesd57751'  
Same as above. No match.  
Score: 0

**idx_3**  
Response: 'nan'  
Target: 'pobox907,moabut84532'  
No answer, no match.  
Score: 0

**idx_4**  
Response: 'p.o.box570,alamogordo,nm88311'  
Target: 'pobox1086,hollomanafbnm88330'  
Response and target both appear to be P.O. Box addresses, but boxes and cities differ ('p.o.box570, alamogordo, nm88311' vs. 'pobox1086, holloman afb nm 88330'). Different addresses/entities. Not equivalent.  
Score: 0

**idx_5**  
Response: 'nan'  
Target: 'zionnationalpark\n1zionparkblvd.\nspringdale,ut84767'  
No answer, target is Zion National Park address. No match.  
Score: 0

**idx_6**  
Response: 'nan'  
Target: 'pobox168,yellowstonenpwy82190'  
No answer.  
Score: 0

**idx_7**  
Response: 'nan'  
Target: 'pobox177,barharborme04609'  
No answer.  
Score: 0

**idx_8**  
Response: 'nan'  
Target: 'pobox7,craterlakeor97604'  
No answer.  
Score: 0

**idx_9**  
Response: 'nan'  
Target: 'pobox369,makawaohi96768'  
No answer.  
Score: 0

**idx_10**  
Response: 'nan'  
Target: '107parkheadquartersrd,gatlinburgtn37738'  
No answer.  
Score: 0

**idx_11**  
Response: 'nan'  
Target: '1111secondstreet\ncrescentcity,ca95531'  
No answer.  
Score: 0

**idx_12**  
Response: 'nan'  
Target: '2282resourceblvd,moabut84532'  
No answer.  
Score: 0

---

### Final scoring results in JSON:

```json
{
  ""idx_0"": 0,
  ""idx_1"": 0,
  ""idx_2"": 0,
  ""idx_3"": 0,
  ""idx_4"": 0,
  ""idx_5"": 0,
  ""idx_6"": 0,
  ""idx_7"": 0,
  ""idx_8"": 0,
  ""idx_9"": 0,
  ""idx_10"": 0,
  ""idx_11"": 0,
  ""idx_12"": 0
}
```","1111secondstreet
crescentcity,ca95531",nan,1.0,key_match,1.0,"Let's analyze each item according to the criterion: ""It is sufficient if the semantics are approximately the same as the reference answer or if they point to the same entity.""

1. idx_0: response ""hawaii"" vs target ""hawaiʻi""  
   - The response uses ""hawaii,"" the target uses ""hawaiʻi"" (with the ʻokina). Semantically, both point to the same entity, the state of Hawaii. So correct.

2. idx_1: ""california"" vs ""california""  
   - Exact match, correct.

3. idx_2: ""southdakota"" vs ""southdakota""  
   - Exact match, correct.

4. idx_3: ""utah"" vs ""utah""  
   - Exact match, correct.

5. idx_4: ""newmexico"" vs ""newmexico""  
   - Exact match, correct.

6. idx_5: ""utah"" vs ""utah""  
   - Exact match, correct.

7. idx_6: ""wyoming,montana,idaho"" vs ""wyoming,montana,idaho""  
   - Exact match, correct.

8. idx_7: ""maine"" vs ""maine""  
   - Exact match, correct.

9. idx_8: ""oregon"" vs ""oregon""  
   - Exact match, correct.

10. idx_9: ""hawaii"" vs ""hawaiʻi""  
    - Same as idx_0, both refer to the same state, so correct.

11. idx_10: ""tennessee,northcarolina"" vs ""northcarolina,tennessee""  
    - The order is different, but entities are the same, so correct.

12. idx_11: ""california"" vs ""california""  
    - Exact match, correct.

13. idx_12: ""utah"" vs ""utah""  
    - Exact match, correct.

Since all responses point to the same entities as targets despite minor formatting (order or ʻokina), all get 1.

Final scoring JSON:

```json
{
    ""idx_0"": 1,
    ""idx_1"": 1,
    ""idx_2"": 1,
    ""idx_3"": 1,
    ""idx_4"": 1,
    ""idx_5"": 1,
    ""idx_6"": 1,
    ""idx_7"": 1,
    ""idx_8"": 1,
    ""idx_9"": 1,
    ""idx_10"": 1,
    ""idx_11"": 1,
    ""idx_12"": 1
}
```",california,california,0.0,"Let's analyze each idx step by step:

- idx_0: response = 'nan'; target = 'tomleatherman'  
  The response is 'nan', which presumably means ""no answer"" or ""not a number"" (no valid response). Target is a valid name. The criteria say semantics should be approximately the same or point to the same entity. Here, 'nan' does not correspond in any way to 'tomleatherman'. Score: 0

- idx_1: response = 'nan'; target = 'davidsmith'  
  Same reasoning as above. Score: 0

- idx_2: response = 'nan'; target = 'michellewheatley'  
  Same reasoning. Score: 0

- idx_3: response = 'nan'; target = 'lenapace'  
  Same reasoning. Score: 0

- idx_4: response = 'mariesauter'; target = 'gerardogonzalez'  
  Response is a different name than target. The criteria require approximate semantic equivalence or refer to the same entity. Names are different, so no match. Score: 0

- idx_5: response = 'nan'; target = 'jeffbradybaugh'  
  No match. Score: 0

- idx_6: response = 'nan'; target = 'cameron(cam)sholly'  
  No match. Score: 0

- idx_7: response = 'nan'; target = 'kevinschneider'  
  No match. Score: 0

- idx_8: response = 'nan'; target = 'kevinheatley'  
  No match. Score: 0

- idx_9: response = 'nan'; target = 'nataliegates'  
  No match. Score: 0

- idx_10: response = 'nan'; target = 'cassiuscash'  
  No match. Score: 0

- idx_11: response = 'nan'; target = 'leonelarguello'  
  No match. Score: 0

- idx_12: response = 'nan'; target = 'lenapace'  
  No match. Score: 0

Final Scores:

```json
{
  ""idx_0"": 0,
  ""idx_1"": 0,
  ""idx_2"": 0,
  ""idx_3"": 0,
  ""idx_4"": 0,
  ""idx_5"": 0,
  ""idx_6"": 0,
  ""idx_7"": 0,
  ""idx_8"": 0,
  ""idx_9"": 0,
  ""idx_10"": 0,
  ""idx_11"": 0,
  ""idx_12"": 0
}
```",leonelarguello,nan
,,canyonlandsnationalpark,Canyonlands National Park,0.0,"number not convertable, response: None, target: 106.09",106.09,NULL,0.0,"number not convertable, response: None, target: 0.8",0.8,NULL,0.0,"Let's analyze each idx item according to the criterion:

Criterion: It is sufficient if the semantics are approximately the same as the reference answer or if they point to the same entity. Just focus on the overall regulation if hunting is prohibited or allowed.

Note regarding the responses: All responses are ""nan"" (likely missing or not provided).

Targets: All standard answers indicate hunting is prohibited in the specified areas (variously stated as ""hunting prohibited,"" ""all hunting prohibited,"" or more detailed explanations indicating hunting is not allowed).

Given the responses are all ""nan"" (i.e., no response), this indicates no valid answer provided that corresponds to the target.

Thus, each item should receive 0 because no answer is given which can be evaluated as correct.

---

Final scoring:

```json
{
  ""idx_0"": 0,
  ""idx_1"": 0,
  ""idx_2"": 0,
  ""idx_3"": 0,
  ""idx_4"": 0,
  ""idx_5"": 0,
  ""idx_6"": 0,
  ""idx_7"": 0,
  ""idx_8"": 0,
  ""idx_9"": 0,
  ""idx_10"": 0,
  ""idx_11"": 0,
  ""idx_12"": 0
}
```","huntingisprohibitedwithintheboundariesofcanyonlandsnationalpark.visitorsarealsoprohibitedfromdischargingfirearmswithinthepark.however,fishingisallowedwithavalidutahstatefishinglicenseandadherencetoutahstatefishingregulations.",nan,0.0,"Let's analyze each idx comparing the response against the target considering the criterion:

- Criterion summary: Semantics being approximately the same or pointing to the same entity is sufficient. No need for word-for-word.

---

### Analysis

**idx_0**  
Response: 'nan'  
Target: '1arizonamemorialpl,honoluluhi96818'  
Response is 'nan' which seems to represent no answer, different from the target. No semantic similarity.  
Score: 0

**idx_1**  
Response: 'nan'  
Target: '1muirwoodsrd,millvalleyca94941'  
Same as above. Response is 'nan' (no answer)  
Score: 0

**idx_2**  
Response: 'nan'  
Target: '13000sd-244,keystonesd57751'  
Same as above. No match.  
Score: 0

**idx_3**  
Response: 'nan'  
Target: 'pobox907,moabut84532'  
No answer, no match.  
Score: 0

**idx_4**  
Response: 'p.o.box570,alamogordo,nm88311'  
Target: 'pobox1086,hollomanafbnm88330'  
Response and target both appear to be P.O. Box addresses, but boxes and cities differ ('p.o.box570, alamogordo, nm88311' vs. 'pobox1086, holloman afb nm 88330'). Different addresses/entities. Not equivalent.  
Score: 0

**idx_5**  
Response: 'nan'  
Target: 'zionnationalpark\n1zionparkblvd.\nspringdale,ut84767'  
No answer, target is Zion National Park address. No match.  
Score: 0

**idx_6**  
Response: 'nan'  
Target: 'pobox168,yellowstonenpwy82190'  
No answer.  
Score: 0

**idx_7**  
Response: 'nan'  
Target: 'pobox177,barharborme04609'  
No answer.  
Score: 0

**idx_8**  
Response: 'nan'  
Target: 'pobox7,craterlakeor97604'  
No answer.  
Score: 0

**idx_9**  
Response: 'nan'  
Target: 'pobox369,makawaohi96768'  
No answer.  
Score: 0

**idx_10**  
Response: 'nan'  
Target: '107parkheadquartersrd,gatlinburgtn37738'  
No answer.  
Score: 0

**idx_11**  
Response: 'nan'  
Target: '1111secondstreet\ncrescentcity,ca95531'  
No answer.  
Score: 0

**idx_12**  
Response: 'nan'  
Target: '2282resourceblvd,moabut84532'  
No answer.  
Score: 0

---

### Final scoring results in JSON:

```json
{
  ""idx_0"": 0,
  ""idx_1"": 0,
  ""idx_2"": 0,
  ""idx_3"": 0,
  ""idx_4"": 0,
  ""idx_5"": 0,
  ""idx_6"": 0,
  ""idx_7"": 0,
  ""idx_8"": 0,
  ""idx_9"": 0,
  ""idx_10"": 0,
  ""idx_11"": 0,
  ""idx_12"": 0
}
```","2282resourceblvd,moabut84532",nan,1.0,key_match,1.0,"Let's analyze each item according to the criterion: ""It is sufficient if the semantics are approximately the same as the reference answer or if they point to the same entity.""

1. idx_0: response ""hawaii"" vs target ""hawaiʻi""  
   - The response uses ""hawaii,"" the target uses ""hawaiʻi"" (with the ʻokina). Semantically, both point to the same entity, the state of Hawaii. So correct.

2. idx_1: ""california"" vs ""california""  
   - Exact match, correct.

3. idx_2: ""southdakota"" vs ""southdakota""  
   - Exact match, correct.

4. idx_3: ""utah"" vs ""utah""  
   - Exact match, correct.

5. idx_4: ""newmexico"" vs ""newmexico""  
   - Exact match, correct.

6. idx_5: ""utah"" vs ""utah""  
   - Exact match, correct.

7. idx_6: ""wyoming,montana,idaho"" vs ""wyoming,montana,idaho""  
   - Exact match, correct.

8. idx_7: ""maine"" vs ""maine""  
   - Exact match, correct.

9. idx_8: ""oregon"" vs ""oregon""  
   - Exact match, correct.

10. idx_9: ""hawaii"" vs ""hawaiʻi""  
    - Same as idx_0, both refer to the same state, so correct.

11. idx_10: ""tennessee,northcarolina"" vs ""northcarolina,tennessee""  
    - The order is different, but entities are the same, so correct.

12. idx_11: ""california"" vs ""california""  
    - Exact match, correct.

13. idx_12: ""utah"" vs ""utah""  
    - Exact match, correct.

Since all responses point to the same entities as targets despite minor formatting (order or ʻokina), all get 1.

Final scoring JSON:

```json
{
    ""idx_0"": 1,
    ""idx_1"": 1,
    ""idx_2"": 1,
    ""idx_3"": 1,
    ""idx_4"": 1,
    ""idx_5"": 1,
    ""idx_6"": 1,
    ""idx_7"": 1,
    ""idx_8"": 1,
    ""idx_9"": 1,
    ""idx_10"": 1,
    ""idx_11"": 1,
    ""idx_12"": 1
}
```",utah,utah,0.0,"Let's analyze each idx step by step:

- idx_0: response = 'nan'; target = 'tomleatherman'  
  The response is 'nan', which presumably means ""no answer"" or ""not a number"" (no valid response). Target is a valid name. The criteria say semantics should be approximately the same or point to the same entity. Here, 'nan' does not correspond in any way to 'tomleatherman'. Score: 0

- idx_1: response = 'nan'; target = 'davidsmith'  
  Same reasoning as above. Score: 0

- idx_2: response = 'nan'; target = 'michellewheatley'  
  Same reasoning. Score: 0

- idx_3: response = 'nan'; target = 'lenapace'  
  Same reasoning. Score: 0

- idx_4: response = 'mariesauter'; target = 'gerardogonzalez'  
  Response is a different name than target. The criteria require approximate semantic equivalence or refer to the same entity. Names are different, so no match. Score: 0

- idx_5: response = 'nan'; target = 'jeffbradybaugh'  
  No match. Score: 0

- idx_6: response = 'nan'; target = 'cameron(cam)sholly'  
  No match. Score: 0

- idx_7: response = 'nan'; target = 'kevinschneider'  
  No match. Score: 0

- idx_8: response = 'nan'; target = 'kevinheatley'  
  No match. Score: 0

- idx_9: response = 'nan'; target = 'nataliegates'  
  No match. Score: 0

- idx_10: response = 'nan'; target = 'cassiuscash'  
  No match. Score: 0

- idx_11: response = 'nan'; target = 'leonelarguello'  
  No match. Score: 0

- idx_12: response = 'nan'; target = 'lenapace'  
  No match. Score: 0

Final Scores:

```json
{
  ""idx_0"": 0,
  ""idx_1"": 0,
  ""idx_2"": 0,
  ""idx_3"": 0,
  ""idx_4"": 0,
  ""idx_5"": 0,
  ""idx_6"": 0,
  ""idx_7"": 0,
  ""idx_8"": 0,
  ""idx_9"": 0,
  ""idx_10"": 0,
  ""idx_11"": 0,
  ""idx_12"": 0
}
```",lenapace,nan
