exist_flag_gt,exist_flag_response,nameoftheheritagesite,nameoftheheritagesite_before_map,area_number_near,area_number_near_eval_msg,area_query,area_response,country_llm_judge,country_llm_judge_eval_msg,country_query,country_response,location_llm_judge,location_llm_judge_eval_msg,location_query,location_response,nameoftheheritagesite_exact_match,nameoftheheritagesite_exact_match_eval_msg,typeofheritage_llm_judge,typeofheritage_llm_judge_eval_msg,typeofheritage_query,typeofheritage_response,yearofrecognition_exact_match,yearofrecognition_exact_match_eval_msg,yearofrecognition_query,yearofrecognition_response
,,independencehall,Independence Hall,0.0,"number not near, response: 22.0, target: 2.0",2,22.0,1.0,"Let's analyze each pair according to the criterion:

Criterion:  
- Semantically approximately the same or pointing to the same entity is sufficient.  
- No need for exact word-for-word correspondence.

---

**idx_0**  
- Response: ""unitedstates""  
- Target: ""unitedstatesofamerica""  
Analysis: ""unitedstates"" clearly refers to the ""United States of America."" The semantics match perfectly.  
Score: 1

**idx_1**  
- Response: ""unitedstates""  
- Target: ""canada,unitedstatesofamerica""  
Analysis: The target contains two entities, ""canada"" and ""unitedstatesofamerica."" The response only mentions ""unitedstates,"" which corresponds to one of the target entities. Since it is sufficient if semantics or entity point to the same, this is acceptable as partially correct. However, the criterion states scoring is binary (0 or 1) and does not mention partial credit. The response correctly includes one of the targets explicitly, so it's acceptable.  
Score: 1

**idx_2**  
- Response: ""unitedstates""  
- Target: ""unitedstatesofamerica""  
Same as idx_0.  
Score: 1

**idx_3**  
- Response: ""unitedstates""  
- Target: ""unitedstatesofamerica""  
Same reasoning.  
Score: 1

**idx_4**  
- Response: ""unitedstates""  
- Target: ""unitedstatesofamerica""  
Same reasoning.  
Score: 1

---

### Final scoring results:

```json
{
    ""idx_0"": 1,
    ""idx_1"": 1,
    ""idx_2"": 1,
    ""idx_3"": 1,
    ""idx_4"": 1
}
```",unitedstatesofamerica,unitedstates,1.0,"Let's analyze each response against its target according to the criteria:

Criteria recap:  
- Semantics approximately same or pointing to the same entity is enough.  
- If multiple addresses are included, all need to correspond.  
- For a specific location, main city or county is required; only province/state is not enough.  

---

**idx_0**  
Response: ""philadelphia,pennsylvania""  
Target: ""philadelphia,commonwealthofpennsylvania""  
Analysis: Both mention Philadelphia and Pennsylvania (commonwealth = state). The semantics are the same, just different terms for Pennsylvania. Score = 1

---

**idx_1**  
Response: ""alaska,unitedstates""  
Target: ""yukonterritory(canada)andalaska(usa)andprovinceofbritishcolumbia(canada)""  

Analysis: The target includes three locations (Yukon Territory, Alaska, British Columbia). The response only includes one (Alaska). According to the criteria, if multiple addresses are included, all need to correspond. Hence score = 0

---

**idx_2**  
Response: ""collinsville,illinois""  
Target: ""st.claircounty,illinois""  

Analysis: The target gives the county (St. Clair) and state (Illinois); response gives city Collinsville and state Illinois. Collinsville is a city in St. Clair County, Illinois. Since city corresponds to county (both pointing to the same general location) and state is the same, this is sufficient to be correct. Score = 1

---

**idx_3**  
Response: ""newmexico""  
Target: ""sanjuancounty,newmexico""  

Analysis: Response only gives the state; target specifies county and state. According to the criteria, only state is not enough; the main city or county is needed. Score = 0

---

**idx_4**  
Response: ""ohio""  
Target: ""rosscounty,ohio""  

Analysis: Same as above, only state given but target includes county and state. State alone is insufficient. Score = 0

---

Final scores in JSON:

```json
{
  ""idx_0"": 1,
  ""idx_1"": 0,
  ""idx_2"": 1,
  ""idx_3"": 0,
  ""idx_4"": 0
}
```","philadelphia,commonwealthofpennsylvania","philadelphia,pennsylvania",1.0,key_match,1.0,"Let's analyze each pair according to the criterion:

- Criterion: It is sufficient if the semantics are approximately the same as the reference answer or if they point to the same entity.

1. idx_0: response = ""cultural"", target = ""cultural""
   - The response exactly matches the target.
   - Score: 1

2. idx_1: response = ""natural"", target = ""natural""
   - The response exactly matches the target.
   - Score: 1

3. idx_2: response = ""cultural"", target = ""cultural""
   - Exact match.
   - Score: 1

4. idx_3: response = ""cultural"", target = ""cultural""
   - Exact match.
   - Score: 1

5. idx_4: response = ""cultural"", target = ""cultural""
   - Exact match.
   - Score: 1

Since all responses match their targets exactly, all receive a score of 1.

```json
{
  ""idx_0"": 1,
  ""idx_1"": 1,
  ""idx_2"": 1,
  ""idx_3"": 1,
  ""idx_4"": 1
}
```",cultural,cultural,1.0,"exact match, response: 1979, target: 1979",1979,1979
,,kluane/wrangell-st.elias/glacierbay/tatshenshini-alsek,Kluane National Park and Reserve,0.0,"number not near, response: 22013.0, target: 9839121.0",9839121,22013.0,1.0,"Let's analyze each pair according to the criterion:

Criterion:  
- Semantically approximately the same or pointing to the same entity is sufficient.  
- No need for exact word-for-word correspondence.

---

**idx_0**  
- Response: ""unitedstates""  
- Target: ""unitedstatesofamerica""  
Analysis: ""unitedstates"" clearly refers to the ""United States of America."" The semantics match perfectly.  
Score: 1

**idx_1**  
- Response: ""unitedstates""  
- Target: ""canada,unitedstatesofamerica""  
Analysis: The target contains two entities, ""canada"" and ""unitedstatesofamerica."" The response only mentions ""unitedstates,"" which corresponds to one of the target entities. Since it is sufficient if semantics or entity point to the same, this is acceptable as partially correct. However, the criterion states scoring is binary (0 or 1) and does not mention partial credit. The response correctly includes one of the targets explicitly, so it's acceptable.  
Score: 1

**idx_2**  
- Response: ""unitedstates""  
- Target: ""unitedstatesofamerica""  
Same as idx_0.  
Score: 1

**idx_3**  
- Response: ""unitedstates""  
- Target: ""unitedstatesofamerica""  
Same reasoning.  
Score: 1

**idx_4**  
- Response: ""unitedstates""  
- Target: ""unitedstatesofamerica""  
Same reasoning.  
Score: 1

---

### Final scoring results:

```json
{
    ""idx_0"": 1,
    ""idx_1"": 1,
    ""idx_2"": 1,
    ""idx_3"": 1,
    ""idx_4"": 1
}
```","canada,unitedstatesofamerica",unitedstates,0.0,"Let's analyze each response against its target according to the criteria:

Criteria recap:  
- Semantics approximately same or pointing to the same entity is enough.  
- If multiple addresses are included, all need to correspond.  
- For a specific location, main city or county is required; only province/state is not enough.  

---

**idx_0**  
Response: ""philadelphia,pennsylvania""  
Target: ""philadelphia,commonwealthofpennsylvania""  
Analysis: Both mention Philadelphia and Pennsylvania (commonwealth = state). The semantics are the same, just different terms for Pennsylvania. Score = 1

---

**idx_1**  
Response: ""alaska,unitedstates""  
Target: ""yukonterritory(canada)andalaska(usa)andprovinceofbritishcolumbia(canada)""  

Analysis: The target includes three locations (Yukon Territory, Alaska, British Columbia). The response only includes one (Alaska). According to the criteria, if multiple addresses are included, all need to correspond. Hence score = 0

---

**idx_2**  
Response: ""collinsville,illinois""  
Target: ""st.claircounty,illinois""  

Analysis: The target gives the county (St. Clair) and state (Illinois); response gives city Collinsville and state Illinois. Collinsville is a city in St. Clair County, Illinois. Since city corresponds to county (both pointing to the same general location) and state is the same, this is sufficient to be correct. Score = 1

---

**idx_3**  
Response: ""newmexico""  
Target: ""sanjuancounty,newmexico""  

Analysis: Response only gives the state; target specifies county and state. According to the criteria, only state is not enough; the main city or county is needed. Score = 0

---

**idx_4**  
Response: ""ohio""  
Target: ""rosscounty,ohio""  

Analysis: Same as above, only state given but target includes county and state. State alone is insufficient. Score = 0

---

Final scores in JSON:

```json
{
  ""idx_0"": 1,
  ""idx_1"": 0,
  ""idx_2"": 1,
  ""idx_3"": 0,
  ""idx_4"": 0
}
```",yukonterritory(canada)andalaska(usa)andprovinceofbritishcolumbia(canada),"alaska,unitedstates",1.0,key_match,1.0,"Let's analyze each pair according to the criterion:

- Criterion: It is sufficient if the semantics are approximately the same as the reference answer or if they point to the same entity.

1. idx_0: response = ""cultural"", target = ""cultural""
   - The response exactly matches the target.
   - Score: 1

2. idx_1: response = ""natural"", target = ""natural""
   - The response exactly matches the target.
   - Score: 1

3. idx_2: response = ""cultural"", target = ""cultural""
   - Exact match.
   - Score: 1

4. idx_3: response = ""cultural"", target = ""cultural""
   - Exact match.
   - Score: 1

5. idx_4: response = ""cultural"", target = ""cultural""
   - Exact match.
   - Score: 1

Since all responses match their targets exactly, all receive a score of 1.

```json
{
  ""idx_0"": 1,
  ""idx_1"": 1,
  ""idx_2"": 1,
  ""idx_3"": 1,
  ""idx_4"": 1
}
```",natural,natural,0.0,"exact not match, response: 1976, target: 1979",1979,1976
,,cahokiamoundsstatehistoricsite,Cahokia Mounds State Historic Site,0.0,"number not convertable, response: None, target: 541.0",541,NULL,1.0,"Let's analyze each pair according to the criterion:

Criterion:  
- Semantically approximately the same or pointing to the same entity is sufficient.  
- No need for exact word-for-word correspondence.

---

**idx_0**  
- Response: ""unitedstates""  
- Target: ""unitedstatesofamerica""  
Analysis: ""unitedstates"" clearly refers to the ""United States of America."" The semantics match perfectly.  
Score: 1

**idx_1**  
- Response: ""unitedstates""  
- Target: ""canada,unitedstatesofamerica""  
Analysis: The target contains two entities, ""canada"" and ""unitedstatesofamerica."" The response only mentions ""unitedstates,"" which corresponds to one of the target entities. Since it is sufficient if semantics or entity point to the same, this is acceptable as partially correct. However, the criterion states scoring is binary (0 or 1) and does not mention partial credit. The response correctly includes one of the targets explicitly, so it's acceptable.  
Score: 1

**idx_2**  
- Response: ""unitedstates""  
- Target: ""unitedstatesofamerica""  
Same as idx_0.  
Score: 1

**idx_3**  
- Response: ""unitedstates""  
- Target: ""unitedstatesofamerica""  
Same reasoning.  
Score: 1

**idx_4**  
- Response: ""unitedstates""  
- Target: ""unitedstatesofamerica""  
Same reasoning.  
Score: 1

---

### Final scoring results:

```json
{
    ""idx_0"": 1,
    ""idx_1"": 1,
    ""idx_2"": 1,
    ""idx_3"": 1,
    ""idx_4"": 1
}
```",unitedstatesofamerica,unitedstates,1.0,"Let's analyze each response against its target according to the criteria:

Criteria recap:  
- Semantics approximately same or pointing to the same entity is enough.  
- If multiple addresses are included, all need to correspond.  
- For a specific location, main city or county is required; only province/state is not enough.  

---

**idx_0**  
Response: ""philadelphia,pennsylvania""  
Target: ""philadelphia,commonwealthofpennsylvania""  
Analysis: Both mention Philadelphia and Pennsylvania (commonwealth = state). The semantics are the same, just different terms for Pennsylvania. Score = 1

---

**idx_1**  
Response: ""alaska,unitedstates""  
Target: ""yukonterritory(canada)andalaska(usa)andprovinceofbritishcolumbia(canada)""  

Analysis: The target includes three locations (Yukon Territory, Alaska, British Columbia). The response only includes one (Alaska). According to the criteria, if multiple addresses are included, all need to correspond. Hence score = 0

---

**idx_2**  
Response: ""collinsville,illinois""  
Target: ""st.claircounty,illinois""  

Analysis: The target gives the county (St. Clair) and state (Illinois); response gives city Collinsville and state Illinois. Collinsville is a city in St. Clair County, Illinois. Since city corresponds to county (both pointing to the same general location) and state is the same, this is sufficient to be correct. Score = 1

---

**idx_3**  
Response: ""newmexico""  
Target: ""sanjuancounty,newmexico""  

Analysis: Response only gives the state; target specifies county and state. According to the criteria, only state is not enough; the main city or county is needed. Score = 0

---

**idx_4**  
Response: ""ohio""  
Target: ""rosscounty,ohio""  

Analysis: Same as above, only state given but target includes county and state. State alone is insufficient. Score = 0

---

Final scores in JSON:

```json
{
  ""idx_0"": 1,
  ""idx_1"": 0,
  ""idx_2"": 1,
  ""idx_3"": 0,
  ""idx_4"": 0
}
```","st.claircounty,illinois","collinsville,illinois",1.0,key_match,1.0,"Let's analyze each pair according to the criterion:

- Criterion: It is sufficient if the semantics are approximately the same as the reference answer or if they point to the same entity.

1. idx_0: response = ""cultural"", target = ""cultural""
   - The response exactly matches the target.
   - Score: 1

2. idx_1: response = ""natural"", target = ""natural""
   - The response exactly matches the target.
   - Score: 1

3. idx_2: response = ""cultural"", target = ""cultural""
   - Exact match.
   - Score: 1

4. idx_3: response = ""cultural"", target = ""cultural""
   - Exact match.
   - Score: 1

5. idx_4: response = ""cultural"", target = ""cultural""
   - Exact match.
   - Score: 1

Since all responses match their targets exactly, all receive a score of 1.

```json
{
  ""idx_0"": 1,
  ""idx_1"": 1,
  ""idx_2"": 1,
  ""idx_3"": 1,
  ""idx_4"": 1
}
```",cultural,cultural,1.0,"exact match, response: 1982, target: 1982",1982,1982
,,chacoculture,Chaco Culture National Historic Park,0.0,"number not convertable, response: None, target: 14261.0",14261,NULL,1.0,"Let's analyze each pair according to the criterion:

Criterion:  
- Semantically approximately the same or pointing to the same entity is sufficient.  
- No need for exact word-for-word correspondence.

---

**idx_0**  
- Response: ""unitedstates""  
- Target: ""unitedstatesofamerica""  
Analysis: ""unitedstates"" clearly refers to the ""United States of America."" The semantics match perfectly.  
Score: 1

**idx_1**  
- Response: ""unitedstates""  
- Target: ""canada,unitedstatesofamerica""  
Analysis: The target contains two entities, ""canada"" and ""unitedstatesofamerica."" The response only mentions ""unitedstates,"" which corresponds to one of the target entities. Since it is sufficient if semantics or entity point to the same, this is acceptable as partially correct. However, the criterion states scoring is binary (0 or 1) and does not mention partial credit. The response correctly includes one of the targets explicitly, so it's acceptable.  
Score: 1

**idx_2**  
- Response: ""unitedstates""  
- Target: ""unitedstatesofamerica""  
Same as idx_0.  
Score: 1

**idx_3**  
- Response: ""unitedstates""  
- Target: ""unitedstatesofamerica""  
Same reasoning.  
Score: 1

**idx_4**  
- Response: ""unitedstates""  
- Target: ""unitedstatesofamerica""  
Same reasoning.  
Score: 1

---

### Final scoring results:

```json
{
    ""idx_0"": 1,
    ""idx_1"": 1,
    ""idx_2"": 1,
    ""idx_3"": 1,
    ""idx_4"": 1
}
```",unitedstatesofamerica,unitedstates,0.0,"Let's analyze each response against its target according to the criteria:

Criteria recap:  
- Semantics approximately same or pointing to the same entity is enough.  
- If multiple addresses are included, all need to correspond.  
- For a specific location, main city or county is required; only province/state is not enough.  

---

**idx_0**  
Response: ""philadelphia,pennsylvania""  
Target: ""philadelphia,commonwealthofpennsylvania""  
Analysis: Both mention Philadelphia and Pennsylvania (commonwealth = state). The semantics are the same, just different terms for Pennsylvania. Score = 1

---

**idx_1**  
Response: ""alaska,unitedstates""  
Target: ""yukonterritory(canada)andalaska(usa)andprovinceofbritishcolumbia(canada)""  

Analysis: The target includes three locations (Yukon Territory, Alaska, British Columbia). The response only includes one (Alaska). According to the criteria, if multiple addresses are included, all need to correspond. Hence score = 0

---

**idx_2**  
Response: ""collinsville,illinois""  
Target: ""st.claircounty,illinois""  

Analysis: The target gives the county (St. Clair) and state (Illinois); response gives city Collinsville and state Illinois. Collinsville is a city in St. Clair County, Illinois. Since city corresponds to county (both pointing to the same general location) and state is the same, this is sufficient to be correct. Score = 1

---

**idx_3**  
Response: ""newmexico""  
Target: ""sanjuancounty,newmexico""  

Analysis: Response only gives the state; target specifies county and state. According to the criteria, only state is not enough; the main city or county is needed. Score = 0

---

**idx_4**  
Response: ""ohio""  
Target: ""rosscounty,ohio""  

Analysis: Same as above, only state given but target includes county and state. State alone is insufficient. Score = 0

---

Final scores in JSON:

```json
{
  ""idx_0"": 1,
  ""idx_1"": 0,
  ""idx_2"": 1,
  ""idx_3"": 0,
  ""idx_4"": 0
}
```","sanjuancounty,newmexico",newmexico,1.0,key_match,1.0,"Let's analyze each pair according to the criterion:

- Criterion: It is sufficient if the semantics are approximately the same as the reference answer or if they point to the same entity.

1. idx_0: response = ""cultural"", target = ""cultural""
   - The response exactly matches the target.
   - Score: 1

2. idx_1: response = ""natural"", target = ""natural""
   - The response exactly matches the target.
   - Score: 1

3. idx_2: response = ""cultural"", target = ""cultural""
   - Exact match.
   - Score: 1

4. idx_3: response = ""cultural"", target = ""cultural""
   - Exact match.
   - Score: 1

5. idx_4: response = ""cultural"", target = ""cultural""
   - Exact match.
   - Score: 1

Since all responses match their targets exactly, all receive a score of 1.

```json
{
  ""idx_0"": 1,
  ""idx_1"": 1,
  ""idx_2"": 1,
  ""idx_3"": 1,
  ""idx_4"": 1
}
```",cultural,cultural,1.0,"exact match, response: 1987, target: 1987",1987,1987
,,hopewellceremonialearthworks,Hopewell Ceremonial Earthworks,0.0,"number not near, response: 30.0, target: 320.7",320.7,30.0,1.0,"Let's analyze each pair according to the criterion:

Criterion:  
- Semantically approximately the same or pointing to the same entity is sufficient.  
- No need for exact word-for-word correspondence.

---

**idx_0**  
- Response: ""unitedstates""  
- Target: ""unitedstatesofamerica""  
Analysis: ""unitedstates"" clearly refers to the ""United States of America."" The semantics match perfectly.  
Score: 1

**idx_1**  
- Response: ""unitedstates""  
- Target: ""canada,unitedstatesofamerica""  
Analysis: The target contains two entities, ""canada"" and ""unitedstatesofamerica."" The response only mentions ""unitedstates,"" which corresponds to one of the target entities. Since it is sufficient if semantics or entity point to the same, this is acceptable as partially correct. However, the criterion states scoring is binary (0 or 1) and does not mention partial credit. The response correctly includes one of the targets explicitly, so it's acceptable.  
Score: 1

**idx_2**  
- Response: ""unitedstates""  
- Target: ""unitedstatesofamerica""  
Same as idx_0.  
Score: 1

**idx_3**  
- Response: ""unitedstates""  
- Target: ""unitedstatesofamerica""  
Same reasoning.  
Score: 1

**idx_4**  
- Response: ""unitedstates""  
- Target: ""unitedstatesofamerica""  
Same reasoning.  
Score: 1

---

### Final scoring results:

```json
{
    ""idx_0"": 1,
    ""idx_1"": 1,
    ""idx_2"": 1,
    ""idx_3"": 1,
    ""idx_4"": 1
}
```",unitedstatesofamerica,unitedstates,0.0,"Let's analyze each response against its target according to the criteria:

Criteria recap:  
- Semantics approximately same or pointing to the same entity is enough.  
- If multiple addresses are included, all need to correspond.  
- For a specific location, main city or county is required; only province/state is not enough.  

---

**idx_0**  
Response: ""philadelphia,pennsylvania""  
Target: ""philadelphia,commonwealthofpennsylvania""  
Analysis: Both mention Philadelphia and Pennsylvania (commonwealth = state). The semantics are the same, just different terms for Pennsylvania. Score = 1

---

**idx_1**  
Response: ""alaska,unitedstates""  
Target: ""yukonterritory(canada)andalaska(usa)andprovinceofbritishcolumbia(canada)""  

Analysis: The target includes three locations (Yukon Territory, Alaska, British Columbia). The response only includes one (Alaska). According to the criteria, if multiple addresses are included, all need to correspond. Hence score = 0

---

**idx_2**  
Response: ""collinsville,illinois""  
Target: ""st.claircounty,illinois""  

Analysis: The target gives the county (St. Clair) and state (Illinois); response gives city Collinsville and state Illinois. Collinsville is a city in St. Clair County, Illinois. Since city corresponds to county (both pointing to the same general location) and state is the same, this is sufficient to be correct. Score = 1

---

**idx_3**  
Response: ""newmexico""  
Target: ""sanjuancounty,newmexico""  

Analysis: Response only gives the state; target specifies county and state. According to the criteria, only state is not enough; the main city or county is needed. Score = 0

---

**idx_4**  
Response: ""ohio""  
Target: ""rosscounty,ohio""  

Analysis: Same as above, only state given but target includes county and state. State alone is insufficient. Score = 0

---

Final scores in JSON:

```json
{
  ""idx_0"": 1,
  ""idx_1"": 0,
  ""idx_2"": 1,
  ""idx_3"": 0,
  ""idx_4"": 0
}
```","rosscounty,ohio",ohio,1.0,key_match,1.0,"Let's analyze each pair according to the criterion:

- Criterion: It is sufficient if the semantics are approximately the same as the reference answer or if they point to the same entity.

1. idx_0: response = ""cultural"", target = ""cultural""
   - The response exactly matches the target.
   - Score: 1

2. idx_1: response = ""natural"", target = ""natural""
   - The response exactly matches the target.
   - Score: 1

3. idx_2: response = ""cultural"", target = ""cultural""
   - Exact match.
   - Score: 1

4. idx_3: response = ""cultural"", target = ""cultural""
   - Exact match.
   - Score: 1

5. idx_4: response = ""cultural"", target = ""cultural""
   - Exact match.
   - Score: 1

Since all responses match their targets exactly, all receive a score of 1.

```json
{
  ""idx_0"": 1,
  ""idx_1"": 1,
  ""idx_2"": 1,
  ""idx_3"": 1,
  ""idx_4"": 1
}
```",cultural,cultural,1.0,"exact match, response: 2023, target: 2023",2023,2023
1.0,,agavelandscapeandancientindustrialfacilitiesoftequila,,,,35018.852,,,,mexico,,,,"vallesregion,jalisco",,,,,,cultural,,,,2006,
1.0,,"ancientmayacityandprotectedtropicalforestsofcalakmul,campeche",,,,331397,,,,mexico,,,,"calakmul,campeche",,,,,,mixed,,,,2002,
1.0,,anticosti,,,,18240,,,,canada,,,,"minganie,côte-nord,quebec",,,,,,natural,,,,2023,
1.0,,aqueductofpadretemblequehydraulicsystem,,,,6540,,,,mexico,,,,"betweenthestatesofmexicoandhidalgo,onthecentralmexicanplateau",,,,,,cultural,,,,2015,
1.0,,archaeologicalmonumentszoneofxochicalco,,,,707.65,,,,mexico,,,,"miacatlán,morelos,mexico",,,,,,cultural,,,,1999,
1.0,,"archaeologicalzoneofpaquimé,casasgrandes",,,,146.72,,,,mexico,,,,"casasgrandes,chihuahua,mexico",,,,,,cultural,,,,1998,
1.0,,archipiélagoderevillagigedo,,,,636685.375,,,,mexico,,,,exclusiveeconomiczoneofmexico,,,,,,natural,,,,2016,
1.0,,caminorealdetierraadentro,,,,3101.91,,,,mexico,,,,"betweenmexicocityandsanjuanpueblo(ohkayowingeh),newmexico(inthemodernu.s.)",,,,,,cultural,,,,2010,
1.0,,canadianrockymountainparks,,,,2360000,,,,canada,,,,albertaandbritishcolumbia,,,,,,natural,,,,1984,
1.0,,carlsbadcavernsnationalpark,,,,18926,,,,unitedstatesofamerica,,,,"eddycounty,stateofnewmexico",,,,,,natural,,,,1995,
1.0,,centraluniversitycitycampusoftheuniversidadnacionalautónomademéxico(unam),,,,176.5,,,,mexico,,,,"mexicocity,mexico",,,,,,cultural,,,,2007,
1.0,,dinosaurprovincialpark,,,,7825,,,,canada,,,,"countyofnewell,alberta",,,,,,natural,,,,1979,
1.0,,earliest16th-centurymonasteriesontheslopesofpopocatepetl,,,,24.33,,,,mexico,,,,"sanandréscalpan,huejotzingo,tochimilco(puebla),tlaxcala(tlaxcala),yecapixtla,tepoztlán(morelos)",,,,,,cultural,,,,1994,
1.0,,elpinacateandgrandesiertodealtarbiospherereserve,,,,714566,,,,mexico,,,,"sonora,méxico",,,,,,natural,,,,2013,
1.0,,"eltajin,pre-hispaniccity",,,,240,,,,mexico,,,,"veracruz,mexico",,,,,,cultural,,,,1992,
1.0,,evergladesnationalpark,,,,567017,,,,unitedstatesofamerica,,,,"miamidadecounty,monroecounty,andcolliercounty",,,,,,natural,,,,1979,
1.0,,franciscanmissionsinthesierragordaofquerétaro,,,,103.7,,,,mexico,,,,"sierragorda,querétaro,mexico",,,,,,cultural,,,,2003,
1.0,,grandcanyonnationalpark,,,,493270,,,,unitedstatesofamerica,,,,coconinoandmohavecountiesinarizona,,,,,,natural,,,,1979,
1.0,,greatsmokymountainsnationalpark,,,,209000,,,,unitedstatesofamerica,,,,"countiesofcocke,blount,andsevierinthestateoftennessee;andthecountiesofswainandhaywoodinthestateofnorthcarolina",,,,,,natural,,,,1983,
1.0,,grosmornenationalpark,,,,180500,,,,canada,,,,"rockyharbour,newfoundlandandlabrador,canada",,,,,,natural,,,,1987,
1.0,,hawaiivolcanoesnationalpark,,,,87940,,,,unitedstatesofamerica,,,,"hawaiicounty,hawaii",,,,,,natural,,,,1987,
1.0,,head-smashed-inbuffalojump,,,,3626,,,,canada,,,,"fortmacleod,alberta",,,,,,cultural,,,,1981,
1.0,,historiccentreofmexicocityandxochimilco,,,,3010.86,,,,mexico,,,,mexicocity,,,,,,natural,,,,1987,
1.0,,historiccentreofmorelia,,,,390,,,,mexico,,,,"morelia,michoacán",,,,,,cultural,,,,1991,
1.0,,historiccentreofoaxacaandarchaeologicalsiteofmontealbán,,,,4375,,,,mexico,,,,"oaxaca,mexico",,,,,,cultural,,,,1987,
1.0,,historiccentreofpuebla,,,,690,,,,mexico,,,,"puebla,centralméxico",,,,,,cultural,,,,1987,
1.0,,historiccentreofzacatecas,,,,207.72,,,,mexico,,,,"zacatecas,mexico",,,,,,cultural,,,,1993,
1.0,,historicdistrictofoldquébec,,,,135,,,,canada,,,,cityofquebec,,,,,,cultural,,,,1985,
1.0,,historicfortifiedtownofcampeche,,,,181,,,,mexico,,,,"inthecityofsanfranciscodecampeche,inthestateofcampeche,mexico",,,,,,cultural,,,,1999,
1.0,,historicmonumentszoneofquerétaro,,,,258.3,,,,mexico,,,,"santiagodequerétaro,querétaro,mexico",,,,,,cultural,,,,1996,
1.0,,historicmonumentszoneoftlacotalpan,,,,75,,,,mexico,,,,"tlacotalpan,veracruz,mexico",,,,,,cultural,,,,1998,
1.0,,historictownofguanajuatoandadjacentmines,,,,2167.5,,,,mexico,,,,"guanajuato,guanajuaton,mexico",,,,,,cultural,,,,1988,
1.0,,"hospiciocabañas,guadalajara",,,,2.34,,,,mexico,,,,"guadalajara,jalisco,mexico",,,,,,cultural,,,,1997,
1.0,,islandsandprotectedareasofthegulfofcalifornia,,,,688558,,,,mexico,,,,"spansmanycitieslikebajacalifornia,sonora,bajacaliforniasur",,,,,,natural,,,,2005,
1.0,,jogginsfossilcliffs,,,,689,,,,canada,,,,"cumberlandcounty,novascotia(easterncanada)",,,,,,natural,,,,2008,
1.0,,lafortalezaandsanjuannationalhistoricsiteinpuertorico,,,,33.39,,,,unitedstatesofamerica,,,,"sanjuan,puertorico",,,,,,cultural,,,,1983,
1.0,,landscapeofgrandpré,,,,1323.24,,,,canada,,,,"kingscounty,novascotia",,,,,,cultural,,,,2012,
1.0,,luisbarragánhouseandstudio,,,,0.1161,,,,mexico,,,,"mexicocity,mexico",,,,,,cultural,,,,2004,
1.0,,l’anseauxmeadowsnationalhistoricsite,,,,7991,,,,canada,,,,"newfoundland,newfoundlandandlabrador",,,,,,cultural,,,,1978,
1.0,,mammothcavenationalpark,,,,21191,,,,unitedstatesofamerica,,,,"countiesofbarren,edmonson,andhartinthestateofkentucky",,,,,,natural,,,,1981,
1.0,,mesaverdenationalpark,,,,21043,,,,unitedstatesofamerica,,,,"montezumacounty,colorado,",,,,,,cultural,,,,1978,
1.0,,miguashanationalpark,,,,87.3,,,,canada,,,,"nouvelle,avignonregionalcountymunicipality,quebec,canada",,,,,,natural,,,,1999,
1.0,,mistakenpoint,,,,146,,,,canada,,,,"newfoundlandandlabrador,canad",,,,,,natural,,,,2016,
1.0,,monarchbutterflybiospherereserve,,,,13551.552,,,,mexico,,,,"michoacán,mexico",,,,,,natural,,,,2008,
1.0,,monticelloandtheuniversityofvirginiaincharlottesville,,,,795.96,,,,unitedstatesofamerica,,,,"albemarlecounty,virginia",,,,,,cultural,,,,1987,
1.0,,monumentalearthworksofpovertypoint,,,,163,,,,unitedstatesofamerica,,,,"westcarroll,stateoflouisiana",,,,,,cultural,,,,2014,
1.0,,moravianchurchsettlements,,,,NULL,,,,denmark&germany&unitedkingdomofgreatbritainandnorthernireland&unitedstatesofamerica,,,,"bethlehem(pennsylvania,usa),christiansfeld(denmark),gracehill(northernireland/uk),andherrnhut(saxony/germany)",,,,,,cultural,,,,2015,
1.0,,nahanninationalpark,,,,476560,,,,canada,,,,"northwestterritories,canada",,,,,,natural,,,,1978,
1.0,,oldtownlunenburg,,,,33.85,,,,canada,,,,"lunenburgcounty,novascotia",,,,,,cultural,,,,1995,
1.0,,olympicnationalpark,,,,369659.8,,,,unitedstatesofamerica,,,,"jefferson,clallam,mason,andgraysharborcounties,washington",,,,,,natural,,,,1981,
1.0,,papahānaumokuākea,,,,36207499,,,,unitedstatesofamerica,,,,"honolulucounty,hawaiian",,,,,,mixed,,,,2010,
1.0,,pimachiowinaki,,,,2904000,,,,canada,,,,manitobaandontario,,,,,,mixed,,,,2018,
1.0,,pre-hispaniccityandnationalparkofpalenque,,,,1772,,,,mexico,,,,"palenque,chiapas,mexico",,,,,,cultural,,,,1987,
1.0,,pre-hispaniccityofchichen-itza,,,,1000,,,,mexico,,,,"yucatán,mexico",,,,,,cultural,,,,1988,
1.0,,pre-hispaniccityofteotihuacan,,,,250,,,,mexico,,,,"teotihuacán,stateofmexico,mexico",,,,,,cultural,,,,1987,
1.0,,pre-hispanictownofuxmal,,,,2059.8,,,,mexico,,,,"yucatán,mexico",,,,,,cultural,,,,1996,
1.0,,prehistoriccavesofyagulandmitlainthecentralvalleyofoaxaca,,,,1515.17,,,,mexico,,,,"tlacolulavalley,oaxaca,mexico",,,,,,cultural,,,,2010,
1.0,,protectivetownofsanmiguelandthesanctuaryofjesúsnazarenodeatotonilco,,,,46.95,,,,mexico,,,,"guanajuato,mexico",,,,,,cultural,,,,2008,
1.0,,redbaybasquewhalingstation,,,,312.973,,,,canada,,,,"newfoundlandandlabrador,canada",,,,,,cultural,,,,2013,
1.0,,redwoodnationalandstateparks,,,,41571,,,,unitedstatesofamerica,,,,"humboldtcounty&delnortecounty,california",,,,,,natural,,,,1980,
1.0,,rideaucanal,,,,21454.81,,,,canada,,,,provinceofontario,,,,,,cultural,,,,2007,
1.0,,rockpaintingsofthesierradesanfrancisco,,,,182600,,,,mexico,,,,"sierradesanfrancisco,mulegémunicipality,bajacaliforniasur,mexico",,,,,,cultural,,,,1993,
1.0,,sanantoniomissions,,,,300.8,,,,unitedstatesofamerica,,,,"bexarcounty,sanantonio",,,,,,cultural,,,,2015,
1.0,,sganggwaay,,,,11032,,,,canada,,,,"queencharlotteislands(haidagwaii,northcoastofbritishcolumbia,canada)",,,,,,cultural,,,,1981,
1.0,,sianka'an,,,,528000,,,,mexico,,,,"tulum,quintanaroo,mexico",,,,,,natural,,,,1987,
1.0,,statueofliberty,,,,5.95,,,,unitedstatesofamerica,,,,"newyork,newyork",,,,,,cultural,,,,1984,
1.0,,taospueblo,,,,19.01,,,,unitedstatesofamerica,,,,"taos,newmexico",,,,,,cultural,,,,1992,
1.0,,tehuacán-cuicatlánvalley:originaryhabitatofmesoamerica,,,,145255.2,,,,mexico,,,,"cuicatlán,tehuacán",,,,,,mixed,,,,2018,
1.0,,the20th-centuryarchitectureoffranklloydwright,,,,25.723,,,,unitedstatesofamerica,,,,"multiplestates(e.g.,springgreen,wi;scottsdale,az)",,,,,,cultural,,,,2019,
1.0,,tr’ondëk-klondike,,,,334.54,,,,canada,,,,"dawsoncity,canada",,,,,,cultural,,,,2023,
1.0,,watertonglacierinternationalpeacepark,,,,457614,,,,"canada,unitedstatesofamerica",,,,"provinceofalberta,canada;stateofmontana,usa",,,,,,natural,,,,1995,
1.0,,whalesanctuaryofelvizcaino,,,,369631,,,,mexico,,,,"bajacaliforniasur,mexico",,,,,,natural,,,,1993,
1.0,,woodbuffalonationalpark,,,,4480000,,,,canada,,,,"albertaandnorthwestterritories,canada",,,,,,natural,,,,1983,
1.0,,writing-on-stone/áísínai’pi,,,,1106,,,,canada,,,,"countyofwarnerno.5,alberta,canada",,,,,,cultural,,,,2019,
1.0,,yellowstonenationalpark,,,,898349,,,,unitedstatesofamerica,,,,"parkcounty&tetoncounty,wyoming;gallatincounty&parkcounty,montana;fremontcounty,idaho;",,,,,,natural,,,,1978,
1.0,,yosemitenationalpark,,,,307934,,,,unitedstatesofamerica,,,,"tuolumne,mariposa,monoandmaderacounties,california",,,,,,natural,,,,1984,
